{"type":"FeatureCollection","features":[{"type":"Feature","properties":{"comunaId":"CHL.13.1.1_1","nombre":"Bulnes","provincia":"Diguillín","regionGadm":"Ñuble","centerLat":-36.7719,"centerLon":-72.2908},"geometry":{"type":"MultiPolygon","coordinates":[[[[-72.4417,-36.6882],[-72.4342,-36.6942],[-72.434,-36.6968],[-72.4363,-36.6982],[-72.437,-36.7011],[-72.4316,-36.7019],[-72.4255,-36.6981],[-72.4198,-36.7003],[-72.4122,-36.6988],[-72.4048,-36.7009],[-72.4033,-36.7037],[-72.3987,-36.7067],[-72.3951,-36.7062],[-72.3895,-36.7025],[-72.3878,-36.7066],[-72.3814,-36.7066],[-72.3792,-36.7047],[-72.3773,-36.6989],[-72.3738,-36.6996],[-72.367,-36.6979],[-72.3653,-36.7],[-72.3605,-36.701],[-72.3511,-36.6959],[-72.347,-36.6987],[-72.3438,-36.6968],[-72.342,-36.6996],[-72.3308,-36.7002],[-72.3255,-36.6981],[-72.3237,-36.6945],[-72.3131,-36.6962],[-72.3096,-36.6993],[-72.3099,-36.7069],[-72.3058,-36.7102],[-72.2961,-36.7127],[-72.295,-36.7116],[-72.2966,-36.7084],[-72.2956,-36.7059],[-72.2868,-36.705],[-72.2814,-36.7089],[-72.2809,-36.7128],[-72.2733,-36.7151],[-72.272,-36.722],[-72.2674,-36.7202],[-72.2659,-36.7245],[-72.2549,-36.7277],[-72.2517,-36.731],[-72.2361,-36.7319],[-72.2333,-36.7302],[-72.2328,-36.7348],[-72.2264,-36.7331],[-72.2242,-36.7358],[-72.2216,-36.7357],[-72.218,-36.7384],[-72.2162,-36.7369],[-72.2006,-36.7403],[-72.2007,-36.7376],[-72.1963,-36.7385],[-72.1937,-36.735],[-72.1865,-36.7367],[-72.1822,-36.7349],[-72.1803,-36.7387],[-72.1757,-36.7396],[-72.1735,-36.7375],[-72.1659,-36.7389],[-72.1604,-36.738],[-72.1555,-36.7348],[-72.1484,-36.7379],[-72.1458,-36.7365],[-72.1415,-36.7374],[-72.1343,-36.7342],[-72.1291,-36.7469],[-72.1273,-36.7574],[-72.1242,-36.761],[-72.124,-36.7658],[-72.1081,-36.7953],[-72.1113,-36.7965],[-72.1123,-36.7936],[-72.1184,-36.7923],[-72.122,-36.794],[-72.1335,-36.7907],[-72.1352,-36.7916],[-72.1369,-36.7892],[-72.1462,-36.787],[-72.15,-36.7947],[-72.1472,-36.7958],[-72.153,-36.8065],[-72.1508,-36.809],[-72.1619,-36.8084],[-72.1632,-36.8059],[-72.1651,-36.806],[-72.1733,-36.8242],[-72.1745,-36.8237],[-72.1751,-36.8254],[-72.1739,-36.826],[-72.1784,-36.8356],[-72.1723,-36.8366],[-72.1735,-36.8407],[-72.1805,-36.8398],[-72.1905,-36.8617],[-72.189,-36.8627],[-72.1901,-36.8653],[-72.1919,-36.8646],[-72.2023,-36.8896],[-72.2111,-36.8921],[-72.2123,-36.8981],[-72.2164,-36.9014],[-72.223,-36.8984],[-72.2355,-36.898],[-72.2438,-36.8931],[-72.2498,-36.8942],[-72.2554,-36.8917],[-72.2742,-36.8918],[-72.2949,-36.8823],[-72.302,-36.8811],[-72.3069,-36.877],[-72.308,-36.8717],[-72.31,-36.87],[-72.3143,-36.87],[-72.3194,-36.8725],[-72.3251,-36.8672],[-72.331,-36.8677],[-72.3385,-36.8648],[-72.3472,-36.8674],[-72.3545,-36.8673],[-72.3632,-36.8635],[-72.3648,-36.8647],[-72.364,-36.8671],[-72.3691,-36.8685],[-72.3804,-36.8667],[-72.3824,-36.8622],[-72.3813,-36.8575],[-72.3926,-36.8498],[-72.3939,-36.84],[-72.4065,-36.8295],[-72.406,-36.8191],[-72.409,-36.8175],[-72.4133,-36.8182],[-72.4192,-36.8055],[-72.4298,-36.8013],[-72.4277,-36.7957],[-72.4267,-36.7812],[-72.4274,-36.7757],[-72.4304,-36.7704],[-72.4148,-36.7606],[-72.414,-36.7588],[-72.4162,-36.7529],[-72.4226,-36.7451],[-72.4353,-36.7392],[-72.4366,-36.7369],[-72.4355,-36.7328],[-72.4379,-36.7293],[-72.4341,-36.7222],[-72.439,-36.7162],[-72.4477,-36.7104],[-72.4488,-36.7055],[-72.4519,-36.7024],[-72.4512,-36.6988],[-72.4433,-36.6919],[-72.4417,-36.6882]]]]}},{"type":"Feature","properties":{"comunaId":"CHL.13.1.2_1","nombre":"Chillán","provincia":"Diguillín","regionGadm":"Ñuble","centerLat":-36.6177,"centerLon":-72.1473},"geometry":{"type":"MultiPolygon","coordinates":[[[[-72.3517,-36.6961],[-72.3605,-36.701],[-72.3653,-36.7],[-72.367,-36.6979],[-72.3738,-36.6996],[-72.3773,-36.6989],[-72.3792,-36.7047],[-72.3839,-36.7071],[-72.3878,-36.7066],[-72.3895,-36.7025],[-72.396,-36.7066],[-72.3993,-36.7067],[-72.4048,-36.7009],[-72.4127,-36.6987],[-72.4198,-36.7003],[-72.4255,-36.6981],[-72.4316,-36.7019],[-72.437,-36.7011],[-72.4363,-36.6982],[-72.434,-36.6968],[-72.4351,-36.6925],[-72.437,-36.6925],[-72.4504,-36.6809],[-72.4499,-36.675],[-72.4533,-36.6656],[-72.4488,-36.6591],[-72.4563,-36.6509],[-72.4643,-36.6478],[-72.4654,-36.6444],[-72.4596,-36.6401],[-72.4518,-36.6418],[-72.4348,-36.6404],[-72.4145,-36.6299],[-72.4081,-36.6287],[-72.3975,-36.6174],[-72.3951,-36.6173],[-72.3914,-36.6225],[-72.3882,-36.6226],[-72.3793,-36.6182],[-72.3696,-36.61],[-72.3587,-36.6068],[-72.3498,-36.601],[-72.3457,-36.6009],[-72.3429,-36.604],[-72.3383,-36.6033],[-72.3367,-36.6011],[-72.3316,-36.6016],[-72.3246,-36.599],[-72.3165,-36.5986],[-72.3143,-36.5928],[-72.3112,-36.5904],[-72.3086,-36.59],[-72.2982,-36.5941],[-72.2914,-36.5995],[-72.2886,-36.5979],[-72.28,-36.5997],[-72.273,-36.5947],[-72.2688,-36.5962],[-72.266,-36.5955],[-72.265,-36.5894],[-72.2554,-36.5784],[-72.2497,-36.5793],[-72.2472,-36.584],[-72.2439,-36.5856],[-72.235,-36.5832],[-72.224,-36.5836],[-72.2167,-36.578],[-72.212,-36.571],[-72.2024,-36.572],[-72.2018,-36.5662],[-72.1979,-36.5576],[-72.1888,-36.5535],[-72.1826,-36.5546],[-72.1764,-36.5518],[-72.1713,-36.5559],[-72.1669,-36.5563],[-72.1605,-36.5549],[-72.1563,-36.5511],[-72.133,-36.5483],[-72.1235,-36.5519],[-72.1182,-36.5497],[-72.1071,-36.5511],[-72.1019,-36.5466],[-72.0941,-36.5509],[-72.0819,-36.5523],[-72.0836,-36.5463],[-72.0823,-36.5437],[-72.0712,-36.5363],[-72.0657,-36.5368],[-72.0608,-36.534],[-72.0553,-36.5331],[-72.0534,-36.5286],[-72.046,-36.5225],[-72.0411,-36.5211],[-72.0309,-36.5266],[-72.0237,-36.5246],[-72.0167,-36.5252],[-72.0144,-36.5237],[-72.0147,-36.5212],[-72.0028,-36.5158],[-71.9982,-36.509],[-71.9916,-36.5066],[-71.9871,-36.51],[-71.9849,-36.5102],[-71.983,-36.5081],[-71.9777,-36.5124],[-71.9726,-36.5133],[-71.9594,-36.5229],[-71.9572,-36.5232],[-71.9515,-36.5201],[-71.9441,-36.5243],[-71.936,-36.5262],[-71.9313,-36.5224],[-71.9176,-36.5228],[-71.9067,-36.5183],[-71.8897,-36.5213],[-71.8812,-36.5185],[-71.8585,-36.5169],[-71.8579,-36.5273],[-71.8616,-36.5418],[-71.8728,-36.5432],[-71.8772,-36.5648],[-71.8829,-36.5639],[-71.8914,-36.5683],[-71.9033,-36.5623],[-71.911,-36.561],[-71.9176,-36.5644],[-71.9293,-36.5631],[-71.945,-36.5641],[-71.9503,-36.5675],[-71.9615,-36.5658],[-71.9702,-36.5587],[-71.9751,-36.5603],[-71.9745,-36.5626],[-71.9765,-36.5636],[-71.9985,-36.5644],[-72.0014,-36.5638],[-72.0083,-36.5567],[-72.013,-36.5549],[-72.0167,-36.556],[-72.015,-36.5575],[-72.0157,-36.5614],[-72.0203,-36.5628],[-72.0245,-36.5693],[-72.0289,-36.5677],[-72.0315,-36.5727],[-72.0356,-36.5718],[-72.0372,-36.5743],[-72.0211,-36.5786],[-72.0289,-36.5899],[-72.0232,-36.5913],[-72.0296,-36.6045],[-72.0007,-36.6124],[-72.0025,-36.616],[-71.9989,-36.618],[-71.9958,-36.6114],[-71.9926,-36.6114],[-71.9941,-36.6153],[-71.9894,-36.6179],[-71.993,-36.6207],[-71.9793,-36.6247],[-71.9825,-36.6279],[-71.9821,-36.6295],[-71.9785,-36.6314],[-71.9766,-36.6286],[-71.9783,-36.6277],[-71.9764,-36.6256],[-71.9573,-36.6328],[-71.9556,-36.6358],[-71.9509,-36.6373],[-71.9537,-36.6433],[-71.9507,-36.6449],[-71.9516,-36.6472],[-71.9494,-36.6482],[-71.9533,-36.6565],[-71.9462,-36.6593],[-71.9381,-36.6661],[-71.9428,-36.6753],[-71.9447,-36.6742],[-71.9507,-36.6852],[-71.9826,-36.672],[-71.9966,-36.6929],[-71.9983,-36.693],[-72.0036,-36.704],[-72.0011,-36.7072],[-71.9921,-36.709],[-71.9901,-36.713],[-71.9859,-36.714],[-71.9793,-36.7208],[-71.9938,-36.7356],[-72.0011,-36.7496],[-72.0234,-36.7442],[-72.0342,-36.7443],[-72.0395,-36.7468],[-72.0474,-36.7451],[-72.0538,-36.7503],[-72.0584,-36.7489],[-72.0584,-36.7374],[-72.0643,-36.7217],[-72.0683,-36.7167],[-72.0681,-36.7122],[-72.0638,-36.705],[-72.0692,-36.7031],[-72.0692,-36.7],[-72.0713,-36.6992],[-72.0687,-36.6925],[-72.0747,-36.6798],[-72.0765,-36.6786],[-72.0788,-36.6684],[-72.0906,-36.6546],[-72.0949,-36.6528],[-72.0936,-36.6466],[-72.1008,-36.644],[-72.0989,-36.6385],[-72.104,-36.637],[-72.1032,-36.6274],[-72.1211,-36.6251],[-72.1233,-36.6235],[-72.1229,-36.62],[-72.1274,-36.617],[-72.1387,-36.6142],[-72.147,-36.6145],[-72.1531,-36.6204],[-72.1529,-36.6238],[-72.174,-36.6211],[-72.2073,-36.6298],[-72.2131,-36.6283],[-72.2123,-36.6249],[-72.2137,-36.6239],[-72.2258,-36.6264],[-72.2266,-36.6313],[-72.2331,-36.6304],[-72.2334,-36.6327],[-72.2422,-36.6276],[-72.2517,-36.6254],[-72.254,-36.6309],[-72.2652,-36.6271],[-72.2729,-36.6367],[-72.2822,-36.6328],[-72.2898,-36.6264],[-72.3004,-36.631],[-72.302,-36.6295],[-72.3051,-36.6311],[-72.3061,-36.6336],[-72.3098,-36.6327],[-72.3132,-36.639],[-72.3165,-36.6379],[-72.3318,-36.6513],[-72.3386,-36.6485],[-72.3416,-36.6522],[-72.3572,-36.6542],[-72.3584,-36.6678],[-72.3549,-36.6671],[-72.3542,-36.6743],[-72.3514,-36.6781],[-72.3537,-36.6791],[-72.3577,-36.6899],[-72.3507,-36.6904],[-72.348,-36.6934],[-72.3517,-36.6961]]]]}},{"type":"Feature","properties":{"comunaId":"CHL.13.1.3_1","nombre":"ChillánViejo","provincia":"Diguillín","regionGadm":"Ñuble","centerLat":-36.6887,"centerLon":-72.2102},"geometry":{"type":"MultiPolygon","coordinates":[[[[-72.1343,-36.7342],[-72.1415,-36.7374],[-72.1458,-36.7365],[-72.1484,-36.7379],[-72.1555,-36.7348],[-72.1604,-36.738],[-72.1659,-36.7389],[-72.1735,-36.7375],[-72.1757,-36.7396],[-72.1803,-36.7387],[-72.1822,-36.7349],[-72.1865,-36.7367],[-72.1937,-36.735],[-72.1963,-36.7385],[-72.2007,-36.7376],[-72.2006,-36.7403],[-72.2162,-36.7369],[-72.218,-36.7384],[-72.2216,-36.7357],[-72.2242,-36.7358],[-72.2264,-36.7331],[-72.2328,-36.7348],[-72.2333,-36.7302],[-72.2361,-36.7319],[-72.2517,-36.731],[-72.2549,-36.7277],[-72.2659,-36.7245],[-72.2674,-36.7202],[-72.272,-36.722],[-72.2733,-36.7151],[-72.2809,-36.7128],[-72.2814,-36.7089],[-72.2868,-36.705],[-72.2956,-36.7059],[-72.2966,-36.7084],[-72.295,-36.7116],[-72.2961,-36.7127],[-72.3058,-36.7102],[-72.3099,-36.7069],[-72.3096,-36.6993],[-72.3115,-36.6966],[-72.3237,-36.6945],[-72.3255,-36.6981],[-72.3308,-36.7002],[-72.342,-36.6996],[-72.3438,-36.6968],[-72.346,-36.6989],[-72.3493,-36.698],[-72.3517,-36.6961],[-72.348,-36.6934],[-72.3507,-36.6904],[-72.3577,-36.6899],[-72.3537,-36.6791],[-72.3514,-36.6781],[-72.3542,-36.6743],[-72.3549,-36.6671],[-72.3584,-36.6678],[-72.3572,-36.6542],[-72.3416,-36.6522],[-72.3386,-36.6485],[-72.3318,-36.6513],[-72.3165,-36.6379],[-72.3132,-36.639],[-72.3098,-36.6327],[-72.3061,-36.6336],[-72.3051,-36.6311],[-72.302,-36.6295],[-72.3004,-36.631],[-72.2898,-36.6264],[-72.2822,-36.6328],[-72.2729,-36.6367],[-72.2652,-36.6271],[-72.254,-36.6309],[-72.2517,-36.6254],[-72.2422,-36.6276],[-72.2334,-36.6327],[-72.2331,-36.6304],[-72.2266,-36.6313],[-72.2258,-36.6264],[-72.2137,-36.6239],[-72.2123,-36.6249],[-72.2131,-36.6283],[-72.2073,-36.6298],[-72.174,-36.6211],[-72.1529,-36.6238],[-72.1531,-36.6204],[-72.1469,-36.6145],[-72.1387,-36.6142],[-72.1276,-36.6169],[-72.1229,-36.62],[-72.1233,-36.6235],[-72.1211,-36.6251],[-72.1032,-36.6274],[-72.104,-36.637],[-72.0989,-36.6385],[-72.1008,-36.644],[-72.0936,-36.6466],[-72.0949,-36.6528],[-72.0906,-36.6546],[-72.0788,-36.6684],[-72.0765,-36.6786],[-72.0747,-36.6798],[-72.0687,-36.6925],[-72.0713,-36.6992],[-72.0692,-36.7],[-72.0692,-36.7031],[-72.0638,-36.705],[-72.0681,-36.7122],[-72.0683,-36.7167],[-72.0643,-36.7217],[-72.0584,-36.7374],[-72.0575,-36.7469],[-72.0589,-36.7482],[-72.075,-36.7412],[-72.0809,-36.7409],[-72.082,-36.7393],[-72.0995,-36.7343],[-72.1069,-36.7353],[-72.1105,-36.734],[-72.1122,-36.7299],[-72.114,-36.7293],[-72.1196,-36.7311],[-72.1274,-36.7284],[-72.1289,-36.7319],[-72.1343,-36.7342]]]]}},{"type":"Feature","properties":{"comunaId":"CHL.13.1.4_1","nombre":"ElCarmen","provincia":"Diguillín","regionGadm":"Ñuble","centerLat":-36.9293,"centerLon":-71.8833},"geometry":{"type":"MultiPolygon","coordinates":[[[[-72.2173,-36.9013],[-72.2128,-36.8989],[-72.2103,-36.8915],[-72.2006,-36.8894],[-72.1966,-36.8852],[-72.1914,-36.8843],[-72.1545,-36.897],[-72.1503,-36.9003],[-72.1402,-36.8999],[-72.1308,-36.9021],[-72.1182,-36.8985],[-72.1131,-36.8996],[-72.1088,-36.9027],[-72.0944,-36.9034],[-72.0944,-36.9006],[-72.0907,-36.8959],[-72.0848,-36.8942],[-72.0705,-36.8936],[-72.0604,-36.8915],[-72.0578,-36.8942],[-72.0456,-36.8942],[-72.046,-36.8917],[-72.0425,-36.8881],[-72.0352,-36.8849],[-72.0307,-36.8763],[-72.0227,-36.8734],[-72.0233,-36.8684],[-72.0144,-36.8653],[-72.0032,-36.8673],[-71.9998,-36.8661],[-71.995,-36.8687],[-71.9911,-36.867],[-71.9828,-36.8682],[-71.9723,-36.8609],[-71.9564,-36.8615],[-71.9457,-36.8546],[-71.9394,-36.8559],[-71.9322,-36.8527],[-71.9282,-36.855],[-71.9231,-36.8539],[-71.8987,-36.8566],[-71.8943,-36.8586],[-71.8583,-36.8499],[-71.8478,-36.8511],[-71.8423,-36.8482],[-71.8344,-36.8504],[-71.8266,-36.8451],[-71.8109,-36.8436],[-71.801,-36.8397],[-71.8005,-36.8417],[-71.792,-36.8389],[-71.7909,-36.8408],[-71.7878,-36.8411],[-71.7792,-36.8345],[-71.7742,-36.8347],[-71.7686,-36.8303],[-71.7616,-36.8285],[-71.7524,-36.8322],[-71.7425,-36.8266],[-71.7414,-36.8298],[-71.7328,-36.8297],[-71.7281,-36.8361],[-71.7259,-36.8348],[-71.722,-36.8394],[-71.714,-36.84],[-71.7082,-36.8434],[-71.7085,-36.852],[-71.6986,-36.8534],[-71.698,-36.856],[-71.695,-36.8564],[-71.6919,-36.8595],[-71.6785,-36.8646],[-71.6742,-36.8639],[-71.672,-36.8668],[-71.6665,-36.8678],[-71.6625,-36.8722],[-71.6594,-36.8712],[-71.6578,-36.873],[-71.6538,-36.8712],[-71.6536,-36.8741],[-71.6483,-36.8732],[-71.6386,-36.8831],[-71.6316,-36.8837],[-71.6289,-36.8863],[-71.6273,-36.8913],[-71.614,-36.8965],[-71.6094,-36.9017],[-71.6045,-36.9016],[-71.6035,-36.9075],[-71.5975,-36.9104],[-71.5984,-36.9409],[-71.5901,-36.9466],[-71.5899,-36.9519],[-71.5868,-36.9533],[-71.5894,-36.9557],[-71.5919,-36.967],[-71.5876,-36.9723],[-71.593,-36.9795],[-71.5882,-36.9864],[-71.5937,-36.9901],[-71.6012,-36.9811],[-71.6032,-36.9764],[-71.6023,-36.9733],[-71.605,-36.97],[-71.6114,-36.9713],[-71.6139,-36.9692],[-71.6169,-36.9724],[-71.6203,-36.9732],[-71.6264,-36.969],[-71.6398,-36.9687],[-71.6537,-36.9778],[-71.6532,-36.9792],[-71.6563,-36.9823],[-71.6619,-36.9849],[-71.6698,-36.9846],[-71.6711,-36.9878],[-71.6802,-36.9959],[-71.6808,-37.0021],[-71.6888,-37.0041],[-71.6917,-37.0109],[-71.706,-37.0118],[-71.7113,-37.0147],[-71.7262,-37.0082],[-71.7299,-37.0086],[-71.7343,-37.0047],[-71.7422,-37.0023],[-71.7494,-37.0042],[-71.7515,-37.0026],[-71.7563,-37.0045],[-71.7655,-37.0023],[-71.7689,-37.0031],[-71.7718,-37.0013],[-71.7766,-37.0025],[-71.7786,-37.001],[-71.7898,-37.001],[-71.8014,-37.0024],[-71.8124,-37.0076],[-71.8198,-37.0073],[-71.8211,-37.0086],[-71.8228,-37.0076],[-71.8245,-37.0093],[-71.8277,-37.0071],[-71.8311,-37.0078],[-71.8352,-37.0058],[-71.844,-37.0056],[-71.8463,-37.0072],[-71.8481,-37.0056],[-71.857,-37.006],[-71.8598,-37.004],[-71.869,-37.0051],[-71.8857,-37],[-71.8884,-37.0009],[-71.8893,-36.9986],[-71.8941,-36.9972],[-71.8982,-36.9983],[-71.9039,-36.9957],[-71.9167,-36.9975],[-71.9211,-36.9967],[-71.9245,-36.9987],[-71.9314,-36.997],[-71.9462,-36.9967],[-71.9585,-36.992],[-71.9651,-36.9954],[-71.9664,-36.9903],[-71.9725,-36.9898],[-71.976,-36.9866],[-71.979,-36.9883],[-71.982,-36.9868],[-71.985,-36.9902],[-71.9928,-36.9878],[-72.0009,-36.9895],[-72.0032,-36.9861],[-72.0094,-36.985],[-72.0118,-36.9814],[-72.0184,-36.9797],[-72.0197,-36.9744],[-72.0241,-36.9719],[-72.0248,-36.9696],[-72.0313,-36.9693],[-72.037,-36.9626],[-72.0411,-36.9635],[-72.0565,-36.9619],[-72.0639,-36.9558],[-72.0794,-36.9537],[-72.0808,-36.9525],[-72.0799,-36.9511],[-72.0855,-36.9469],[-72.0892,-36.9496],[-72.095,-36.9504],[-72.0982,-36.9481],[-72.1007,-36.941],[-72.1091,-36.9398],[-72.1114,-36.9364],[-72.1152,-36.9349],[-72.1276,-36.9336],[-72.1283,-36.9258],[-72.131,-36.9241],[-72.1343,-36.9257],[-72.1386,-36.923],[-72.1429,-36.9261],[-72.1497,-36.9248],[-72.1496,-36.9226],[-72.1561,-36.9238],[-72.161,-36.9169],[-72.173,-36.9139],[-72.1728,-36.9085],[-72.1796,-36.9103],[-72.1876,-36.9064],[-72.189,-36.9095],[-72.1983,-36.9096],[-72.2043,-36.9034],[-72.2076,-36.9035],[-72.2064,-36.9052],[-72.2083,-36.9056],[-72.2173,-36.9013]]]]}},{"type":"Feature","properties":{"comunaId":"CHL.13.1.5_1","nombre":"Pemuco","provincia":"Diguillín","regionGadm":"Ñuble","centerLat":-36.9949,"centerLon":-72.006},"geometry":{"type":"MultiPolygon","coordinates":[[[[-72.1947,-37.0273],[-72.2143,-37.0183],[-72.2193,-37.0181],[-72.2226,-37.0127],[-72.2293,-37.0091],[-72.2434,-37.007],[-72.2531,-37.0007],[-72.2611,-37.0004],[-72.2716,-36.9972],[-72.2823,-36.9989],[-72.2872,-36.9978],[-72.291,-36.9937],[-72.3028,-36.9888],[-72.3113,-36.9829],[-72.3188,-36.9851],[-72.326,-36.9815],[-72.3317,-36.9711],[-72.3433,-36.9706],[-72.3424,-36.9669],[-72.3484,-36.9558],[-72.3483,-36.9459],[-72.3522,-36.9429],[-72.3525,-36.9394],[-72.3579,-36.9377],[-72.3644,-36.939],[-72.3662,-36.9381],[-72.3702,-36.9255],[-72.3753,-36.9174],[-72.3828,-36.9145],[-72.3855,-36.9116],[-72.3834,-36.9056],[-72.376,-36.8986],[-72.3765,-36.8953],[-72.3787,-36.8941],[-72.377,-36.8899],[-72.3793,-36.8879],[-72.3807,-36.8807],[-72.3804,-36.8667],[-72.3691,-36.8685],[-72.364,-36.8671],[-72.3648,-36.8647],[-72.3632,-36.8635],[-72.3545,-36.8673],[-72.3472,-36.8674],[-72.3385,-36.8648],[-72.331,-36.8677],[-72.3251,-36.8672],[-72.3194,-36.8725],[-72.3143,-36.87],[-72.31,-36.87],[-72.308,-36.8717],[-72.3069,-36.877],[-72.302,-36.8811],[-72.2949,-36.8823],[-72.2734,-36.8921],[-72.2554,-36.8917],[-72.2498,-36.8942],[-72.2438,-36.8931],[-72.234,-36.8985],[-72.2218,-36.8987],[-72.2083,-36.9056],[-72.2064,-36.9052],[-72.2076,-36.9035],[-72.2049,-36.9032],[-72.1983,-36.9096],[-72.189,-36.9095],[-72.1876,-36.9064],[-72.1796,-36.9103],[-72.1731,-36.9084],[-72.1719,-36.9103],[-72.173,-36.9139],[-72.161,-36.9169],[-72.1561,-36.9238],[-72.1496,-36.9226],[-72.1497,-36.9248],[-72.1429,-36.9261],[-72.1386,-36.923],[-72.1343,-36.9257],[-72.131,-36.9241],[-72.1283,-36.9258],[-72.1276,-36.9336],[-72.1152,-36.9349],[-72.1114,-36.9364],[-72.1091,-36.9398],[-72.1007,-36.941],[-72.0982,-36.9481],[-72.095,-36.9504],[-72.0892,-36.9496],[-72.0855,-36.9469],[-72.0799,-36.9511],[-72.0808,-36.9525],[-72.0794,-36.9537],[-72.0639,-36.9558],[-72.0565,-36.9619],[-72.0411,-36.9635],[-72.037,-36.9626],[-72.0313,-36.9693],[-72.0248,-36.9696],[-72.0241,-36.9719],[-72.0197,-36.9744],[-72.0184,-36.9797],[-72.0118,-36.9814],[-72.0094,-36.985],[-72.0032,-36.9861],[-72.0009,-36.9895],[-71.9928,-36.9878],[-71.985,-36.9902],[-71.982,-36.9868],[-71.979,-36.9883],[-71.976,-36.9866],[-71.9725,-36.9898],[-71.9664,-36.9903],[-71.9651,-36.9954],[-71.9585,-36.992],[-71.9462,-36.9967],[-71.9314,-36.997],[-71.9245,-36.9987],[-71.9211,-36.9967],[-71.9167,-36.9975],[-71.9039,-36.9957],[-71.8982,-36.9983],[-71.8941,-36.9972],[-71.8893,-36.9986],[-71.8884,-37.0009],[-71.8857,-37],[-71.869,-37.0051],[-71.8598,-37.004],[-71.857,-37.006],[-71.8481,-37.0056],[-71.8463,-37.0072],[-71.844,-37.0056],[-71.8352,-37.0058],[-71.8311,-37.0078],[-71.8277,-37.0071],[-71.8245,-37.0093],[-71.8228,-37.0076],[-71.8211,-37.0086],[-71.8198,-37.0073],[-71.8124,-37.0076],[-71.8014,-37.0024],[-71.7898,-37.001],[-71.7786,-37.001],[-71.7766,-37.0025],[-71.7718,-37.0013],[-71.7689,-37.0031],[-71.7655,-37.0023],[-71.7563,-37.0045],[-71.7515,-37.0026],[-71.7494,-37.0042],[-71.7422,-37.0023],[-71.7343,-37.0047],[-71.7299,-37.0086],[-71.7262,-37.0082],[-71.7113,-37.0147],[-71.706,-37.0118],[-71.6917,-37.0109],[-71.6888,-37.0041],[-71.6808,-37.0021],[-71.6802,-36.9959],[-71.6711,-36.9878],[-71.6698,-36.9846],[-71.6619,-36.9849],[-71.6563,-36.9823],[-71.6532,-36.9792],[-71.6537,-36.9778],[-71.6398,-36.9687],[-71.6264,-36.969],[-71.6203,-36.9732],[-71.6169,-36.9724],[-71.6139,-36.9692],[-71.6114,-36.9713],[-71.605,-36.97],[-71.6023,-36.9733],[-71.6032,-36.9764],[-71.6012,-36.9811],[-71.5937,-36.9901],[-71.5956,-36.9918],[-71.5969,-37.0054],[-71.6165,-37.0063],[-71.6312,-37.0187],[-71.6468,-37.0234],[-71.6624,-37.0225],[-71.6688,-37.0301],[-71.6823,-37.0312],[-71.6859,-37.0344],[-71.6927,-37.037],[-71.6976,-37.0352],[-71.7084,-37.0383],[-71.714,-37.0379],[-71.7226,-37.0419],[-71.7358,-37.0441],[-71.7399,-37.0462],[-71.758,-37.0454],[-71.7594,-37.0478],[-71.7674,-37.0481],[-71.7744,-37.0503],[-71.7748,-37.0519],[-71.7796,-37.0519],[-71.7809,-37.0537],[-71.7993,-37.0538],[-71.8094,-37.0563],[-71.8104,-37.0552],[-71.8219,-37.0557],[-71.8244,-37.0537],[-71.8261,-37.0551],[-71.8322,-37.054],[-71.8354,-37.0546],[-71.8355,-37.0571],[-71.8386,-37.0582],[-71.8396,-37.0603],[-71.846,-37.058],[-71.8505,-37.0592],[-71.8528,-37.0618],[-71.8601,-37.0614],[-71.8613,-37.0628],[-71.863,-37.0618],[-71.8655,-37.0645],[-71.8723,-37.0645],[-71.8737,-37.0666],[-71.8805,-37.0664],[-71.883,-37.0638],[-71.8864,-37.0641],[-71.8915,-37.0616],[-71.8974,-37.0631],[-71.9073,-37.0602],[-71.9145,-37.0598],[-71.9194,-37.0574],[-71.9204,-37.0543],[-71.9214,-37.0556],[-71.9281,-37.0554],[-71.9293,-37.0568],[-71.9324,-37.0551],[-71.9428,-37.0559],[-71.9476,-37.0528],[-71.948,-37.0498],[-71.9512,-37.0497],[-71.9513,-37.0518],[-71.9563,-37.0499],[-71.958,-37.0447],[-71.9611,-37.0486],[-71.9657,-37.0456],[-71.9652,-37.0494],[-71.9701,-37.0504],[-71.97,-37.0532],[-71.9757,-37.0527],[-71.9784,-37.0491],[-71.9771,-37.0476],[-71.9813,-37.0445],[-71.9837,-37.0398],[-71.9895,-37.0371],[-71.9942,-37.0373],[-71.9968,-37.0395],[-71.999,-37.0382],[-72.002,-37.0393],[-72.0027,-37.037],[-72.0084,-37.0355],[-72.0082,-37.0373],[-72.0113,-37.0361],[-72.0113,-37.0395],[-72.0161,-37.0418],[-72.0188,-37.0396],[-72.0201,-37.0417],[-72.0222,-37.0409],[-72.0223,-37.0388],[-72.0267,-37.0394],[-72.0279,-37.0427],[-72.0354,-37.043],[-72.0382,-37.0406],[-72.0446,-37.0432],[-72.046,-37.0421],[-72.0437,-37.0465],[-72.0508,-37.0456],[-72.054,-37.0482],[-72.0555,-37.0441],[-72.0618,-37.0438],[-72.063,-37.0461],[-72.0651,-37.0438],[-72.0709,-37.0431],[-72.0781,-37.0459],[-72.0827,-37.0431],[-72.0854,-37.0454],[-72.0889,-37.0422],[-72.092,-37.043],[-72.096,-37.0354],[-72.1017,-37.0366],[-72.1059,-37.0397],[-72.11,-37.0377],[-72.1153,-37.0404],[-72.12,-37.04],[-72.1243,-37.0363],[-72.1319,-37.0427],[-72.1349,-37.0388],[-72.1325,-37.036],[-72.1333,-37.0348],[-72.1379,-37.037],[-72.1411,-37.0353],[-72.1434,-37.0385],[-72.1491,-37.0357],[-72.149,-37.0379],[-72.1516,-37.038],[-72.1636,-37.0335],[-72.1727,-37.0363],[-72.1784,-37.0337],[-72.1799,-37.0312],[-72.1824,-37.032],[-72.189,-37.0269],[-72.1947,-37.0273]]]]}},{"type":"Feature","properties":{"comunaId":"CHL.13.1.6_1","nombre":"Pinto","provincia":"Diguillín","regionGadm":"Ñuble","centerLat":-36.9058,"centerLon":-71.5538},"geometry":{"type":"MultiPolygon","coordinates":[[[[-71.2219,-36.9793],[-71.221,-36.9787],[-71.2215,-36.9821],[-71.217,-36.9827],[-71.2141,-36.9861],[-71.2068,-36.9855],[-71.1984,-36.9871],[-71.188,-36.9964],[-71.1801,-36.9951],[-71.1672,-36.9973],[-71.1667,-37.0055],[-71.1582,-37.0085],[-71.1589,-37.0112],[-71.1555,-37.0129],[-71.1553,-37.0172],[-71.1486,-37.0214],[-71.1474,-37.028],[-71.1431,-37.0316],[-71.1419,-37.0398],[-71.1372,-37.0528],[-71.144,-37.0615],[-71.1442,-37.0628],[-71.1404,-37.0643],[-71.1409,-37.0691],[-71.1358,-37.0719],[-71.1285,-37.0696],[-71.1211,-37.0726],[-71.1199,-37.0745],[-71.1222,-37.08],[-71.1214,-37.0832],[-71.1233,-37.0897],[-71.1207,-37.0919],[-71.1115,-37.0948],[-71.1054,-37.1055],[-71.0996,-37.1068],[-71.0962,-37.1096],[-71.1016,-37.1103],[-71.1048,-37.113],[-71.1144,-37.1158],[-71.1554,-37.1161],[-71.1573,-37.1138],[-71.1618,-37.1133],[-71.1664,-37.1094],[-71.1741,-37.1064],[-71.1815,-37.0987],[-71.1865,-37.0996],[-71.1885,-37.0978],[-71.2049,-37.1],[-71.214,-37.1029],[-71.2263,-37.1035],[-71.2439,-37.1106],[-71.249,-37.1114],[-71.2587,-37.1094],[-71.2623,-37.1111],[-71.2701,-37.1115],[-71.2722,-37.1082],[-71.2823,-37.103],[-71.2872,-37.1018],[-71.2997,-37.1014],[-71.3012,-37.1031],[-71.3037,-37.1019],[-71.3077,-37.0987],[-71.3103,-37.0939],[-71.3128,-37.0936],[-71.3159,-37.0897],[-71.3182,-37.0891],[-71.3228,-37.0809],[-71.3274,-37.0797],[-71.329,-37.0773],[-71.3548,-37.0761],[-71.3601,-37.0719],[-71.3662,-37.0709],[-71.3677,-37.0686],[-71.3773,-37.0691],[-71.3841,-37.0671],[-71.394,-37.0691],[-71.3944,-37.0719],[-71.3971,-37.0729],[-71.3946,-37.0765],[-71.3958,-37.0796],[-71.4001,-37.0836],[-71.4057,-37.0848],[-71.4068,-37.0883],[-71.4101,-37.0903],[-71.4114,-37.0828],[-71.4153,-37.0813],[-71.4172,-37.0782],[-71.4218,-37.0786],[-71.4228,-37.0756],[-71.4294,-37.0757],[-71.4335,-37.0718],[-71.4457,-37.0728],[-71.4522,-37.0673],[-71.4543,-37.0684],[-71.4563,-37.0661],[-71.4586,-37.0662],[-71.4588,-37.0609],[-71.4614,-37.0603],[-71.4595,-37.0566],[-71.4613,-37.0573],[-71.4614,-37.0534],[-71.4637,-37.0494],[-71.4614,-37.0436],[-71.4675,-37.0414],[-71.474,-37.0353],[-71.4743,-37.0293],[-71.4798,-37.023],[-71.48,-37.0198],[-71.4874,-37.0153],[-71.4918,-37.0159],[-71.4934,-37.0117],[-71.4971,-37.0089],[-71.5076,-37.0065],[-71.5095,-37.0046],[-71.5252,-37.0069],[-71.5371,-37.0095],[-71.5447,-37.0173],[-71.5517,-37.0196],[-71.5549,-37.0139],[-71.5691,-37.0143],[-71.5738,-37.0068],[-71.5813,-37.0004],[-71.5954,-36.9973],[-71.5955,-36.9914],[-71.5882,-36.9864],[-71.593,-36.9795],[-71.5876,-36.9723],[-71.5919,-36.967],[-71.5894,-36.9557],[-71.5868,-36.9533],[-71.5899,-36.9519],[-71.5901,-36.9466],[-71.5984,-36.9409],[-71.5976,-36.9103],[-71.6035,-36.9075],[-71.6045,-36.9016],[-71.6094,-36.9017],[-71.614,-36.8965],[-71.6273,-36.8913],[-71.6289,-36.8863],[-71.6316,-36.8837],[-71.6386,-36.8831],[-71.6483,-36.8732],[-71.6536,-36.8741],[-71.6538,-36.8712],[-71.6578,-36.873],[-71.6594,-36.8712],[-71.6625,-36.8722],[-71.6665,-36.8678],[-71.672,-36.8668],[-71.6742,-36.8639],[-71.6785,-36.8646],[-71.6919,-36.8595],[-71.695,-36.8564],[-71.698,-36.856],[-71.6986,-36.8534],[-71.7085,-36.852],[-71.7082,-36.8434],[-71.714,-36.84],[-71.722,-36.8394],[-71.7259,-36.8348],[-71.7279,-36.8362],[-71.7332,-36.8295],[-71.7414,-36.8298],[-71.7432,-36.8266],[-71.7532,-36.8323],[-71.7623,-36.8285],[-71.7707,-36.8311],[-71.7736,-36.8339],[-71.7749,-36.8308],[-71.7549,-36.8229],[-71.7554,-36.8172],[-71.7632,-36.8213],[-71.7823,-36.823],[-71.7902,-36.822],[-71.8012,-36.8158],[-71.8111,-36.8158],[-71.8139,-36.8182],[-71.8128,-36.8241],[-71.817,-36.8258],[-71.8197,-36.8246],[-71.8223,-36.8327],[-71.8309,-36.8315],[-71.8392,-36.8277],[-71.8402,-36.8252],[-71.8433,-36.8248],[-71.8448,-36.8215],[-71.852,-36.8181],[-71.857,-36.8134],[-71.8562,-36.8111],[-71.8634,-36.8102],[-71.8691,-36.8063],[-71.8809,-36.8027],[-71.8808,-36.801],[-71.8837,-36.7991],[-71.8934,-36.7969],[-71.9032,-36.792],[-71.9072,-36.7929],[-71.912,-36.791],[-71.9143,-36.7877],[-71.9162,-36.7885],[-71.927,-36.784],[-71.933,-36.7848],[-71.9351,-36.7813],[-71.9379,-36.7822],[-71.9404,-36.7803],[-71.9433,-36.7807],[-71.9463,-36.7786],[-71.9555,-36.7767],[-71.9632,-36.772],[-71.9644,-36.7672],[-71.973,-36.7621],[-71.9739,-36.7575],[-71.9817,-36.7484],[-71.994,-36.7451],[-71.9981,-36.7496],[-72.0011,-36.7496],[-71.9938,-36.7356],[-71.9793,-36.7208],[-71.9859,-36.714],[-71.9901,-36.713],[-71.9921,-36.709],[-72.0011,-36.7072],[-72.0036,-36.704],[-71.9983,-36.693],[-71.9966,-36.6929],[-71.9826,-36.672],[-71.9507,-36.6852],[-71.9447,-36.6742],[-71.9428,-36.6753],[-71.9381,-36.6661],[-71.9343,-36.6667],[-71.9291,-36.6693],[-71.9254,-36.6755],[-71.9205,-36.6749],[-71.9136,-36.677],[-71.9123,-36.6781],[-71.9132,-36.6811],[-71.9079,-36.686],[-71.9057,-36.686],[-71.9023,-36.6911],[-71.8984,-36.6907],[-71.8916,-36.694],[-71.88,-36.696],[-71.8763,-36.7016],[-71.8707,-36.7029],[-71.8645,-36.7071],[-71.8596,-36.7136],[-71.8523,-36.7153],[-71.8474,-36.714],[-71.84,-36.7184],[-71.8362,-36.7222],[-71.8347,-36.7278],[-71.8218,-36.741],[-71.8134,-36.7411],[-71.8101,-36.7442],[-71.804,-36.7452],[-71.7982,-36.7513],[-71.7984,-36.7549],[-71.7965,-36.7586],[-71.7981,-36.7632],[-71.7951,-36.7672],[-71.781,-36.7724],[-71.7798,-36.7752],[-71.777,-36.7755],[-71.7711,-36.7807],[-71.7683,-36.7857],[-71.7551,-36.7925],[-71.7451,-36.7942],[-71.7378,-36.7933],[-71.7273,-36.7978],[-71.7216,-36.7987],[-71.7062,-36.7967],[-71.6964,-36.7983],[-71.6918,-36.7965],[-71.6894,-36.7977],[-71.6741,-36.796],[-71.6693,-36.7971],[-71.6665,-36.7998],[-71.6482,-36.8015],[-71.6432,-36.8056],[-71.6304,-36.8101],[-71.6281,-36.8148],[-71.6232,-36.8151],[-71.6205,-36.8183],[-71.6205,-36.8209],[-71.6113,-36.8305],[-71.5787,-36.8385],[-71.5688,-36.8447],[-71.5617,-36.8459],[-71.5486,-36.8438],[-71.5358,-36.8394],[-71.5202,-36.8388],[-71.5143,-36.8362],[-71.5124,-36.831],[-71.5073,-36.8309],[-71.5042,-36.8286],[-71.4915,-36.8247],[-71.4778,-36.8257],[-71.4713,-36.8278],[-71.4574,-36.8268],[-71.4548,-36.8243],[-71.4509,-36.8235],[-71.4473,-36.8176],[-71.4407,-36.8135],[-71.4357,-36.8116],[-71.4309,-36.8123],[-71.4206,-36.8223],[-71.4062,-36.8317],[-71.4036,-36.8371],[-71.4036,-36.8418],[-71.3988,-36.8505],[-71.3885,-36.857],[-71.3719,-36.8753],[-71.3643,-36.8774],[-71.3599,-36.8852],[-71.3506,-36.8946],[-71.3399,-36.8974],[-71.3395,-36.9008],[-71.3447,-36.9081],[-71.3449,-36.9112],[-71.3354,-36.9137],[-71.333,-36.9173],[-71.3293,-36.9192],[-71.303,-36.9225],[-71.2925,-36.9178],[-71.2879,-36.9178],[-71.2838,-36.9128],[-71.2779,-36.9096],[-71.2674,-36.9155],[-71.2607,-36.9148],[-71.2549,-36.9302],[-71.2611,-36.939],[-71.2604,-36.9421],[-71.2507,-36.9491],[-71.2461,-36.9545],[-71.2378,-36.9573],[-71.2234,-36.966],[-71.2214,-36.9705],[-71.2253,-36.977],[-71.2241,-36.9791],[-71.2219,-36.9793]]]]}},{"type":"Feature","properties":{"comunaId":"CHL.13.1.7_1","nombre":"Quillón","provincia":"Diguillín","regionGadm":"Ñuble","centerLat":-36.8131,"centerLon":-72.521},"geometry":{"type":"MultiPolygon","coordinates":[[[[-72.3854,-36.9119],[-72.3895,-36.9163],[-72.4017,-36.918],[-72.4067,-36.9242],[-72.4076,-36.9288],[-72.4202,-36.931],[-72.4224,-36.9261],[-72.4615,-36.9272],[-72.4612,-36.9189],[-72.4514,-36.9083],[-72.4573,-36.9048],[-72.4698,-36.9132],[-72.4823,-36.8969],[-72.5023,-36.8957],[-72.5095,-36.9031],[-72.5118,-36.9233],[-72.5141,-36.9248],[-72.5101,-36.9299],[-72.5099,-36.9327],[-72.517,-36.9395],[-72.5165,-36.9353],[-72.5189,-36.9314],[-72.5318,-36.9272],[-72.5415,-36.9268],[-72.545,-36.93],[-72.5515,-36.9317],[-72.5551,-36.9313],[-72.5571,-36.9288],[-72.5617,-36.9274],[-72.5702,-36.9291],[-72.588,-36.9285],[-72.5997,-36.9235],[-72.6144,-36.9201],[-72.6483,-36.9184],[-72.653,-36.9213],[-72.6578,-36.9104],[-72.6512,-36.9056],[-72.6498,-36.9003],[-72.6534,-36.8963],[-72.6525,-36.8938],[-72.6541,-36.8922],[-72.6452,-36.8835],[-72.6426,-36.8822],[-72.6358,-36.8829],[-72.6298,-36.8863],[-72.6183,-36.8864],[-72.6025,-36.8925],[-72.5952,-36.8911],[-72.5815,-36.8945],[-72.5708,-36.8937],[-72.5657,-36.8902],[-72.5611,-36.8902],[-72.5604,-36.8829],[-72.562,-36.8773],[-72.5701,-36.8725],[-72.5731,-36.8657],[-72.5626,-36.8559],[-72.5565,-36.8476],[-72.5414,-36.8507],[-72.5384,-36.8496],[-72.5455,-36.8444],[-72.5519,-36.8423],[-72.5534,-36.8395],[-72.5564,-36.8395],[-72.5618,-36.8361],[-72.5678,-36.8365],[-72.57,-36.8339],[-72.5771,-36.8316],[-72.5782,-36.83],[-72.5774,-36.8251],[-72.5794,-36.8222],[-72.5902,-36.8187],[-72.5938,-36.8137],[-72.5934,-36.8072],[-72.5905,-36.8011],[-72.5908,-36.7983],[-72.5931,-36.7962],[-72.5916,-36.7923],[-72.5947,-36.7888],[-72.5942,-36.786],[-72.5965,-36.7834],[-72.5976,-36.7754],[-72.602,-36.7713],[-72.6027,-36.7677],[-72.5964,-36.756],[-72.5893,-36.7534],[-72.5855,-36.7484],[-72.5965,-36.7473],[-72.5973,-36.7443],[-72.5955,-36.7419],[-72.5961,-36.7405],[-72.5899,-36.7401],[-72.5903,-36.734],[-72.5935,-36.7316],[-72.5891,-36.7306],[-72.5865,-36.727],[-72.5879,-36.726],[-72.5877,-36.721],[-72.5909,-36.7166],[-72.5906,-36.7145],[-72.5898,-36.7128],[-72.5868,-36.7132],[-72.5821,-36.71],[-72.5816,-36.7032],[-72.5794,-36.7011],[-72.5793,-36.6986],[-72.5769,-36.6974],[-72.572,-36.6985],[-72.5671,-36.6967],[-72.5605,-36.698],[-72.5584,-36.7012],[-72.5553,-36.7009],[-72.5478,-36.7068],[-72.5432,-36.707],[-72.5378,-36.7101],[-72.5337,-36.7097],[-72.5215,-36.7023],[-72.5147,-36.7017],[-72.5118,-36.6937],[-72.5072,-36.6895],[-72.4927,-36.6902],[-72.4861,-36.6877],[-72.4736,-36.6877],[-72.4713,-36.6867],[-72.4712,-36.6838],[-72.469,-36.6823],[-72.4653,-36.6835],[-72.4619,-36.6823],[-72.452,-36.6776],[-72.4499,-36.6748],[-72.45,-36.6818],[-72.4417,-36.6882],[-72.4433,-36.6919],[-72.4512,-36.6988],[-72.4519,-36.7024],[-72.4488,-36.7055],[-72.4477,-36.7104],[-72.439,-36.7162],[-72.4341,-36.7222],[-72.4379,-36.7293],[-72.4355,-36.7328],[-72.4366,-36.7369],[-72.4353,-36.7392],[-72.4226,-36.7451],[-72.4162,-36.7529],[-72.414,-36.7588],[-72.4148,-36.7606],[-72.4304,-36.7704],[-72.4274,-36.7757],[-72.4267,-36.7812],[-72.4277,-36.7957],[-72.4298,-36.8013],[-72.4192,-36.8055],[-72.4133,-36.8182],[-72.409,-36.8175],[-72.406,-36.8191],[-72.4062,-36.83],[-72.3939,-36.84],[-72.3926,-36.8498],[-72.381,-36.8581],[-72.3824,-36.8622],[-72.3803,-36.8669],[-72.3807,-36.8807],[-72.3793,-36.8879],[-72.377,-36.8899],[-72.3787,-36.8941],[-72.3765,-36.8953],[-72.376,-36.8986],[-72.3834,-36.9056],[-72.3854,-36.9119]]]]}},{"type":"Feature","properties":{"comunaId":"CHL.13.1.8_1","nombre":"SanIgnacio","provincia":"Diguillín","regionGadm":"Ñuble","centerLat":-36.8191,"centerLon":-72.0015},"geometry":{"type":"MultiPolygon","coordinates":[[[[-72.2023,-36.8896],[-72.1919,-36.8646],[-72.1901,-36.8653],[-72.189,-36.8627],[-72.1905,-36.8617],[-72.1805,-36.8398],[-72.1735,-36.8407],[-72.1723,-36.8366],[-72.1784,-36.8356],[-72.1739,-36.826],[-72.1751,-36.8254],[-72.1745,-36.8237],[-72.1733,-36.8242],[-72.1651,-36.806],[-72.1632,-36.8059],[-72.1619,-36.8084],[-72.1508,-36.809],[-72.153,-36.8065],[-72.1472,-36.7958],[-72.15,-36.7947],[-72.1462,-36.787],[-72.1369,-36.7892],[-72.1352,-36.7916],[-72.1335,-36.7907],[-72.122,-36.794],[-72.1184,-36.7923],[-72.1123,-36.7936],[-72.1113,-36.7965],[-72.1081,-36.7953],[-72.124,-36.7658],[-72.1242,-36.761],[-72.1273,-36.7574],[-72.1291,-36.7469],[-72.1341,-36.737],[-72.1343,-36.7342],[-72.1289,-36.7319],[-72.1274,-36.7284],[-72.1196,-36.7311],[-72.1133,-36.7294],[-72.1105,-36.734],[-72.1065,-36.7354],[-72.0995,-36.7343],[-72.082,-36.7393],[-72.0809,-36.7409],[-72.075,-36.7412],[-72.0674,-36.7454],[-72.063,-36.7455],[-72.0552,-36.7505],[-72.0477,-36.7451],[-72.0395,-36.7468],[-72.0327,-36.7441],[-72.0234,-36.7442],[-71.9995,-36.75],[-71.994,-36.7451],[-71.9834,-36.7476],[-71.9739,-36.7575],[-71.973,-36.7621],[-71.9644,-36.7672],[-71.9632,-36.772],[-71.9555,-36.7767],[-71.9463,-36.7786],[-71.9433,-36.7807],[-71.9404,-36.7803],[-71.9379,-36.7822],[-71.9351,-36.7813],[-71.933,-36.7848],[-71.927,-36.784],[-71.9162,-36.7885],[-71.9143,-36.7877],[-71.912,-36.791],[-71.9072,-36.7929],[-71.9032,-36.792],[-71.8934,-36.7969],[-71.8837,-36.7991],[-71.8808,-36.801],[-71.8809,-36.8027],[-71.8691,-36.8063],[-71.8634,-36.8102],[-71.8562,-36.8111],[-71.857,-36.8134],[-71.852,-36.8181],[-71.8448,-36.8215],[-71.8433,-36.8248],[-71.8402,-36.8252],[-71.8392,-36.8277],[-71.8309,-36.8315],[-71.8223,-36.8327],[-71.8197,-36.8246],[-71.817,-36.8258],[-71.8128,-36.8241],[-71.8139,-36.8182],[-71.8111,-36.8158],[-71.8012,-36.8158],[-71.7902,-36.822],[-71.7823,-36.823],[-71.7632,-36.8213],[-71.7554,-36.8172],[-71.7549,-36.8229],[-71.7749,-36.8308],[-71.7739,-36.8344],[-71.7792,-36.8345],[-71.787,-36.8409],[-71.7903,-36.8411],[-71.792,-36.8389],[-71.8005,-36.8417],[-71.801,-36.8397],[-71.8109,-36.8436],[-71.8266,-36.8451],[-71.834,-36.8503],[-71.8423,-36.8482],[-71.8478,-36.8511],[-71.8583,-36.8499],[-71.8943,-36.8586],[-71.8987,-36.8566],[-71.9231,-36.8539],[-71.9282,-36.855],[-71.9322,-36.8527],[-71.9394,-36.8559],[-71.9457,-36.8546],[-71.9564,-36.8615],[-71.9723,-36.8609],[-71.9828,-36.8682],[-71.9911,-36.867],[-71.995,-36.8687],[-71.9998,-36.8661],[-72.0032,-36.8673],[-72.0147,-36.8654],[-72.0233,-36.8684],[-72.0227,-36.8734],[-72.0307,-36.8763],[-72.0352,-36.8849],[-72.0425,-36.8881],[-72.046,-36.8917],[-72.0456,-36.8942],[-72.0578,-36.8942],[-72.0604,-36.8915],[-72.0705,-36.8936],[-72.0848,-36.8942],[-72.0907,-36.8959],[-72.0944,-36.9006],[-72.0944,-36.9034],[-72.1088,-36.9027],[-72.1131,-36.8996],[-72.1182,-36.8985],[-72.1308,-36.9021],[-72.1402,-36.8999],[-72.1503,-36.9003],[-72.1545,-36.897],[-72.1914,-36.8843],[-72.1966,-36.8852],[-72.2023,-36.8896]]]]}},{"type":"Feature","properties":{"comunaId":"CHL.13.1.9_1","nombre":"Yungay","provincia":"Diguillín","regionGadm":"Ñuble","centerLat":-37.0946,"centerLon":-71.9193},"geometry":{"type":"MultiPolygon","coordinates":[[[[-71.5517,-37.0196],[-71.5489,-37.0235],[-71.5485,-37.0325],[-71.5409,-37.0411],[-71.5417,-37.0483],[-71.5459,-37.0589],[-71.5439,-37.0628],[-71.5403,-37.0637],[-71.5422,-37.0818],[-71.5412,-37.0838],[-71.5441,-37.0858],[-71.5464,-37.0912],[-71.5504,-37.0936],[-71.551,-37.096],[-71.5536,-37.0962],[-71.5541,-37.0996],[-71.5564,-37.1011],[-71.557,-37.1123],[-71.5589,-37.1172],[-71.5561,-37.1306],[-71.5625,-37.1339],[-71.5694,-37.1335],[-71.5754,-37.1263],[-71.5813,-37.1244],[-71.5933,-37.1268],[-71.5996,-37.1303],[-71.6025,-37.1294],[-71.6199,-37.1336],[-71.6221,-37.1323],[-71.6269,-37.1332],[-71.6325,-37.1319],[-71.643,-37.1342],[-71.6535,-37.1311],[-71.6621,-37.1346],[-71.6779,-37.1449],[-71.6871,-37.1444],[-71.6943,-37.1393],[-71.6987,-37.1389],[-71.7007,-37.1336],[-71.7096,-37.1267],[-71.7228,-37.1243],[-71.7283,-37.1275],[-71.7359,-37.1226],[-71.748,-37.1209],[-71.7521,-37.1152],[-71.7579,-37.1154],[-71.7685,-37.1111],[-71.7763,-37.1126],[-71.7805,-37.1107],[-71.7847,-37.112],[-71.7971,-37.1087],[-71.7995,-37.1111],[-71.8071,-37.1119],[-71.8141,-37.117],[-71.8238,-37.1203],[-71.8271,-37.1249],[-71.8357,-37.1243],[-71.8376,-37.1252],[-71.8361,-37.1285],[-71.8443,-37.129],[-71.841,-37.1376],[-71.8432,-37.1387],[-71.8445,-37.1514],[-71.8475,-37.1543],[-71.8501,-37.162],[-71.8595,-37.1614],[-71.8622,-37.1646],[-71.8632,-37.1631],[-71.8663,-37.1632],[-71.8667,-37.1668],[-71.8689,-37.1694],[-71.8777,-37.1694],[-71.8813,-37.1717],[-71.8816,-37.1746],[-71.8858,-37.1764],[-71.8899,-37.1826],[-71.8964,-37.1827],[-71.8994,-37.1847],[-71.9054,-37.1848],[-71.9112,-37.1815],[-71.9145,-37.1835],[-71.9169,-37.1825],[-71.9193,-37.1866],[-71.9309,-37.1854],[-71.9388,-37.1905],[-71.9445,-37.1911],[-71.9456,-37.1925],[-71.964,-37.1897],[-71.9712,-37.1917],[-71.9735,-37.189],[-71.9762,-37.1914],[-71.9775,-37.188],[-71.9855,-37.1909],[-71.9877,-37.1935],[-71.9906,-37.1932],[-71.9985,-37.1882],[-71.9979,-37.1836],[-72.0076,-37.1831],[-72.0118,-37.1769],[-72.0358,-37.1656],[-72.0367,-37.1678],[-72.0663,-37.1679],[-72.0598,-37.1737],[-72.0574,-37.1718],[-72.0534,-37.1749],[-72.0556,-37.1766],[-72.0544,-37.1776],[-72.0631,-37.1848],[-72.062,-37.1935],[-72.0678,-37.1911],[-72.077,-37.1904],[-72.0856,-37.1853],[-72.1039,-37.187],[-72.1097,-37.1798],[-72.1192,-37.1786],[-72.1259,-37.1809],[-72.1364,-37.1795],[-72.1411,-37.1866],[-72.1457,-37.1882],[-72.153,-37.1949],[-72.1603,-37.1974],[-72.1689,-37.1975],[-72.1807,-37.1934],[-72.1864,-37.196],[-72.1947,-37.1939],[-72.2075,-37.187],[-72.2376,-37.1864],[-72.244,-37.1822],[-72.2531,-37.1926],[-72.2674,-37.1935],[-72.271,-37.1955],[-72.2744,-37.1948],[-72.28,-37.1553],[-72.2689,-37.1546],[-72.2672,-37.1487],[-72.2685,-37.1469],[-72.2653,-37.1482],[-72.2616,-37.1233],[-72.2715,-37.1205],[-72.257,-37.106],[-72.2614,-37.0926],[-72.2536,-37.0897],[-72.2432,-37.0894],[-72.2438,-37.0855],[-72.2316,-37.0809],[-72.2309,-37.0837],[-72.2271,-37.0834],[-72.2285,-37.0798],[-72.2166,-37.0754],[-72.1872,-37.0531],[-72.1822,-37.0463],[-72.188,-37.0432],[-72.187,-37.04],[-72.1914,-37.0362],[-72.1918,-37.0307],[-72.1947,-37.0273],[-72.189,-37.0269],[-72.1824,-37.032],[-72.1799,-37.0312],[-72.1784,-37.0337],[-72.1727,-37.0363],[-72.1636,-37.0335],[-72.1516,-37.038],[-72.149,-37.0379],[-72.1491,-37.0357],[-72.1434,-37.0385],[-72.1411,-37.0353],[-72.1379,-37.037],[-72.1333,-37.0348],[-72.1325,-37.036],[-72.1349,-37.0388],[-72.1319,-37.0427],[-72.1243,-37.0363],[-72.12,-37.04],[-72.1153,-37.0404],[-72.11,-37.0377],[-72.1059,-37.0397],[-72.1017,-37.0366],[-72.096,-37.0354],[-72.092,-37.043],[-72.0889,-37.0422],[-72.0854,-37.0454],[-72.0827,-37.0431],[-72.0781,-37.0459],[-72.0709,-37.0431],[-72.0651,-37.0438],[-72.063,-37.0461],[-72.0618,-37.0438],[-72.0555,-37.0441],[-72.054,-37.0482],[-72.0508,-37.0456],[-72.0437,-37.0465],[-72.046,-37.0421],[-72.0446,-37.0432],[-72.0382,-37.0406],[-72.0354,-37.043],[-72.0279,-37.0427],[-72.0267,-37.0394],[-72.0223,-37.0388],[-72.0222,-37.0409],[-72.0201,-37.0417],[-72.0188,-37.0396],[-72.0161,-37.0418],[-72.0113,-37.0395],[-72.0113,-37.0361],[-72.0082,-37.0373],[-72.0084,-37.0355],[-72.0027,-37.037],[-72.002,-37.0393],[-71.999,-37.0382],[-71.9968,-37.0395],[-71.9942,-37.0373],[-71.9895,-37.0371],[-71.9837,-37.0398],[-71.9813,-37.0445],[-71.9771,-37.0476],[-71.9784,-37.0491],[-71.9757,-37.0527],[-71.97,-37.0532],[-71.9701,-37.0504],[-71.9652,-37.0494],[-71.9657,-37.0456],[-71.9611,-37.0486],[-71.958,-37.0447],[-71.9563,-37.0499],[-71.9513,-37.0518],[-71.9512,-37.0497],[-71.948,-37.0498],[-71.9476,-37.0528],[-71.9428,-37.0559],[-71.9324,-37.0551],[-71.9293,-37.0568],[-71.9281,-37.0554],[-71.9214,-37.0556],[-71.9204,-37.0543],[-71.9194,-37.0574],[-71.9145,-37.0598],[-71.9073,-37.0602],[-71.8974,-37.0631],[-71.8915,-37.0616],[-71.8864,-37.0641],[-71.883,-37.0638],[-71.8805,-37.0664],[-71.8737,-37.0666],[-71.8723,-37.0645],[-71.8655,-37.0645],[-71.863,-37.0618],[-71.8613,-37.0628],[-71.8601,-37.0614],[-71.8528,-37.0618],[-71.8505,-37.0592],[-71.846,-37.058],[-71.8396,-37.0603],[-71.8386,-37.0582],[-71.8355,-37.0571],[-71.8354,-37.0546],[-71.8322,-37.054],[-71.8261,-37.0551],[-71.8244,-37.0537],[-71.8219,-37.0557],[-71.8104,-37.0552],[-71.8094,-37.0563],[-71.7993,-37.0538],[-71.7809,-37.0537],[-71.7796,-37.0519],[-71.7748,-37.0519],[-71.7744,-37.0503],[-71.7674,-37.0481],[-71.7594,-37.0478],[-71.758,-37.0454],[-71.7399,-37.0462],[-71.7358,-37.0441],[-71.7226,-37.0419],[-71.714,-37.0379],[-71.7084,-37.0383],[-71.6976,-37.0352],[-71.6927,-37.037],[-71.6859,-37.0344],[-71.6823,-37.0312],[-71.6688,-37.0301],[-71.6624,-37.0225],[-71.6468,-37.0234],[-71.6312,-37.0187],[-71.6165,-37.0063],[-71.5969,-37.0054],[-71.5973,-37.0008],[-71.5954,-36.9973],[-71.5813,-37.0004],[-71.5738,-37.0068],[-71.5691,-37.0143],[-71.5549,-37.0139],[-71.5517,-37.0196]]]]}},{"type":"Feature","properties":{"comunaId":"CHL.13.2.1_1","nombre":"Cobquecura","provincia":"Itata","regionGadm":"Ñuble","centerLat":-36.1853,"centerLon":-72.7065},"geometry":{"type":"MultiPolygon","coordinates":[[[[-72.6468,-36.0167],[-72.6445,-36.0151],[-72.6402,-36.0209],[-72.6354,-36.0208],[-72.6306,-36.0253],[-72.6303,-36.029],[-72.6332,-36.0284],[-72.6334,-36.0313],[-72.6284,-36.033],[-72.6271,-36.0316],[-72.6237,-36.0319],[-72.6241,-36.0353],[-72.6215,-36.0345],[-72.6199,-36.036],[-72.6218,-36.0382],[-72.62,-36.0409],[-72.623,-36.0419],[-72.6223,-36.0442],[-72.6239,-36.0462],[-72.6237,-36.0489],[-72.6202,-36.0509],[-72.6216,-36.0525],[-72.6198,-36.0532],[-72.62,-36.0555],[-72.6141,-36.0529],[-72.6011,-36.0568],[-72.6021,-36.06],[-72.5927,-36.062],[-72.5919,-36.0903],[-72.5895,-36.0897],[-72.5839,-36.0919],[-72.582,-36.0889],[-72.5792,-36.0884],[-72.5716,-36.093],[-72.5729,-36.0967],[-72.5672,-36.1002],[-72.5662,-36.1031],[-72.5629,-36.1026],[-72.5623,-36.1048],[-72.5606,-36.1051],[-72.5546,-36.1031],[-72.5527,-36.1085],[-72.5529,-36.1118],[-72.5599,-36.1126],[-72.5635,-36.1174],[-72.5675,-36.118],[-72.5696,-36.1157],[-72.5691,-36.1144],[-72.5728,-36.1124],[-72.5936,-36.109],[-72.6008,-36.1152],[-72.6171,-36.1214],[-72.6222,-36.127],[-72.6353,-36.1319],[-72.6401,-36.1361],[-72.6459,-36.1363],[-72.6483,-36.1386],[-72.6632,-36.1391],[-72.6757,-36.1439],[-72.6751,-36.1421],[-72.6767,-36.1405],[-72.6834,-36.1396],[-72.6874,-36.1368],[-72.6895,-36.1404],[-72.6946,-36.1384],[-72.7026,-36.1424],[-72.7068,-36.1478],[-72.7038,-36.1502],[-72.6998,-36.1576],[-72.6994,-36.1659],[-72.6978,-36.168],[-72.6955,-36.169],[-72.6899,-36.1676],[-72.6741,-36.1712],[-72.6644,-36.1758],[-72.6538,-36.186],[-72.6523,-36.1888],[-72.6545,-36.1905],[-72.654,-36.1921],[-72.6461,-36.1894],[-72.6442,-36.1909],[-72.6425,-36.196],[-72.6461,-36.2029],[-72.6454,-36.2074],[-72.6432,-36.2098],[-72.6452,-36.2129],[-72.6423,-36.2165],[-72.6403,-36.2261],[-72.6363,-36.2304],[-72.6353,-36.2372],[-72.6388,-36.2421],[-72.6372,-36.2482],[-72.6425,-36.2528],[-72.6438,-36.2566],[-72.6306,-36.258],[-72.627,-36.2645],[-72.6196,-36.2666],[-72.6194,-36.2718],[-72.6218,-36.2748],[-72.6238,-36.2847],[-72.6274,-36.2884],[-72.6269,-36.294],[-72.6288,-36.2968],[-72.6257,-36.2997],[-72.6254,-36.3021],[-72.6317,-36.3049],[-72.6352,-36.3034],[-72.6408,-36.3101],[-72.6455,-36.3056],[-72.6515,-36.3068],[-72.6495,-36.3141],[-72.6574,-36.3182],[-72.6563,-36.3233],[-72.661,-36.3254],[-72.6656,-36.3312],[-72.6708,-36.3332],[-72.6745,-36.3311],[-72.6752,-36.3289],[-72.6816,-36.3298],[-72.6821,-36.3282],[-72.6849,-36.328],[-72.689,-36.3313],[-72.6888,-36.3369],[-72.696,-36.3423],[-72.7061,-36.3437],[-72.7146,-36.3482],[-72.7257,-36.3474],[-72.728,-36.3528],[-72.731,-36.3544],[-72.7379,-36.3527],[-72.7459,-36.3565],[-72.7532,-36.3502],[-72.7519,-36.3482],[-72.7533,-36.3435],[-72.7574,-36.3476],[-72.7613,-36.3481],[-72.7595,-36.3442],[-72.762,-36.3418],[-72.7612,-36.3393],[-72.7659,-36.3371],[-72.7674,-36.3327],[-72.7696,-36.3347],[-72.7718,-36.3327],[-72.7719,-36.335],[-72.7738,-36.3354],[-72.7758,-36.331],[-72.7774,-36.332],[-72.7776,-36.3307],[-72.7795,-36.3308],[-72.7823,-36.3326],[-72.7824,-36.3312],[-72.7841,-36.3325],[-72.7897,-36.3308],[-72.7914,-36.3323],[-72.7893,-36.3344],[-72.7966,-36.3342],[-72.7936,-36.3355],[-72.7947,-36.3367],[-72.7997,-36.3356],[-72.8011,-36.3416],[-72.8039,-36.3421],[-72.8034,-36.3455],[-72.8073,-36.3468],[-72.8067,-36.3512],[-72.8101,-36.3537],[-72.8129,-36.3516],[-72.8228,-36.3539],[-72.8356,-36.3507],[-72.8402,-36.3532],[-72.8442,-36.3534],[-72.8443,-36.3554],[-72.8463,-36.3562],[-72.8467,-36.3549],[-72.852,-36.3597],[-72.8526,-36.3583],[-72.8502,-36.3569],[-72.8468,-36.3508],[-72.841,-36.3347],[-72.8309,-36.3239],[-72.8201,-36.2996],[-72.8177,-36.2981],[-72.8177,-36.2955],[-72.8163,-36.2958],[-72.8088,-36.2764],[-72.8087,-36.2612],[-72.8111,-36.246],[-72.8222,-36.1974],[-72.8241,-36.1954],[-72.8219,-36.1942],[-72.8227,-36.1918],[-72.8195,-36.1906],[-72.8187,-36.1828],[-72.8202,-36.1799],[-72.8165,-36.1808],[-72.8145,-36.1797],[-72.8109,-36.1736],[-72.8039,-36.1431],[-72.806,-36.1223],[-72.8133,-36.0944],[-72.8151,-36.0935],[-72.8119,-36.0913],[-72.812,-36.0884],[-72.8105,-36.0873],[-72.8116,-36.0862],[-72.8103,-36.0869],[-72.8088,-36.0838],[-72.8104,-36.0813],[-72.8086,-36.0814],[-72.8081,-36.0788],[-72.8063,-36.0793],[-72.8061,-36.0782],[-72.8047,-36.0788],[-72.8058,-36.0776],[-72.8028,-36.0772],[-72.7967,-36.0788],[-72.7907,-36.0709],[-72.7869,-36.0579],[-72.7869,-36.051],[-72.7855,-36.0509],[-72.7867,-36.0491],[-72.7824,-36.0474],[-72.778,-36.0404],[-72.7805,-36.0145],[-72.7775,-36.0144],[-72.7751,-36.0112],[-72.7681,-36.0106],[-72.7657,-36.0057],[-72.7596,-36.0056],[-72.7435,-36.0079],[-72.7316,-36.0155],[-72.7209,-36.0194],[-72.7214,-36.0227],[-72.7184,-36.0242],[-72.7144,-36.0215],[-72.7082,-36.0232],[-72.7047,-36.017],[-72.6962,-36.0221],[-72.6898,-36.0186],[-72.6866,-36.0188],[-72.6798,-36.0219],[-72.6767,-36.0278],[-72.6678,-36.0303],[-72.6603,-36.0362],[-72.6563,-36.0406],[-72.6553,-36.047],[-72.6468,-36.0167]]]]}},{"type":"Feature","properties":{"comunaId":"CHL.13.2.2_1","nombre":"Coelemu","provincia":"Itata","regionGadm":"Ñuble","centerLat":-36.5017,"centerLon":-72.7496},"geometry":{"type":"MultiPolygon","coordinates":[[[[-72.7337,-36.6173],[-72.7431,-36.6215],[-72.7518,-36.6217],[-72.7622,-36.6248],[-72.7733,-36.625],[-72.7771,-36.624],[-72.7727,-36.6221],[-72.767,-36.6098],[-72.7645,-36.6084],[-72.7646,-36.6053],[-72.7983,-36.606],[-72.8009,-36.5719],[-72.7984,-36.5719],[-72.7976,-36.5703],[-72.7978,-36.5636],[-72.8261,-36.5427],[-72.8234,-36.5367],[-72.8279,-36.5265],[-72.819,-36.5124],[-72.8142,-36.5156],[-72.8116,-36.5151],[-72.8082,-36.511],[-72.8012,-36.5108],[-72.8079,-36.5061],[-72.8002,-36.4968],[-72.8135,-36.482],[-72.8098,-36.4597],[-72.8195,-36.4541],[-72.8262,-36.4613],[-72.8328,-36.4622],[-72.8353,-36.4606],[-72.8413,-36.4619],[-72.8518,-36.4591],[-72.8541,-36.4623],[-72.8558,-36.4596],[-72.8613,-36.457],[-72.8653,-36.4571],[-72.8691,-36.4551],[-72.8725,-36.4572],[-72.8778,-36.4549],[-72.8762,-36.4516],[-72.877,-36.4483],[-72.8839,-36.4448],[-72.8814,-36.4424],[-72.8844,-36.4371],[-72.8819,-36.4334],[-72.8798,-36.4339],[-72.8787,-36.4313],[-72.8725,-36.4272],[-72.8732,-36.4135],[-72.8706,-36.3897],[-72.8469,-36.3881],[-72.8224,-36.3815],[-72.801,-36.3927],[-72.7933,-36.3988],[-72.7817,-36.4],[-72.7716,-36.398],[-72.7685,-36.4025],[-72.7629,-36.403],[-72.7594,-36.4059],[-72.7539,-36.4072],[-72.7404,-36.4038],[-72.7344,-36.4059],[-72.7343,-36.408],[-72.7298,-36.413],[-72.7284,-36.4204],[-72.7242,-36.4222],[-72.7197,-36.42],[-72.7099,-36.4212],[-72.708,-36.4241],[-72.7024,-36.426],[-72.7026,-36.4293],[-72.6972,-36.4358],[-72.6951,-36.4412],[-72.6975,-36.4438],[-72.7001,-36.4547],[-72.6941,-36.4589],[-72.6928,-36.462],[-72.6936,-36.4638],[-72.6963,-36.4645],[-72.6971,-36.4715],[-72.6918,-36.4762],[-72.6895,-36.4856],[-72.6834,-36.4883],[-72.6732,-36.5027],[-72.6682,-36.5051],[-72.6619,-36.5053],[-72.6545,-36.5135],[-72.646,-36.5162],[-72.6431,-36.5209],[-72.6358,-36.5242],[-72.6279,-36.5248],[-72.6286,-36.5285],[-72.6234,-36.5308],[-72.6203,-36.537],[-72.6134,-36.5421],[-72.6081,-36.5423],[-72.6049,-36.5449],[-72.6163,-36.5503],[-72.6164,-36.5523],[-72.63,-36.5619],[-72.6429,-36.5686],[-72.6435,-36.5755],[-72.6469,-36.5778],[-72.6506,-36.5851],[-72.649,-36.5936],[-72.6519,-36.5971],[-72.655,-36.5972],[-72.6592,-36.6007],[-72.6656,-36.6005],[-72.6696,-36.6059],[-72.6762,-36.6061],[-72.6819,-36.6098],[-72.6958,-36.6141],[-72.7048,-36.6144],[-72.7172,-36.6118],[-72.7225,-36.6149],[-72.7337,-36.6173]]]]}},{"type":"Feature","properties":{"comunaId":"CHL.13.2.3_1","nombre":"Ninhue","provincia":"Itata","regionGadm":"Ñuble","centerLat":-36.3467,"centerLon":-72.4244},"geometry":{"type":"MultiPolygon","coordinates":[[[[-72.4126,-36.2225],[-72.4095,-36.2255],[-72.4061,-36.2259],[-72.4038,-36.2289],[-72.4012,-36.2284],[-72.3995,-36.2319],[-72.3913,-36.2338],[-72.3924,-36.2359],[-72.3901,-36.2386],[-72.3897,-36.242],[-72.3875,-36.2424],[-72.3863,-36.245],[-72.3893,-36.2465],[-72.3894,-36.2484],[-72.3802,-36.2511],[-72.3802,-36.2542],[-72.3764,-36.2538],[-72.3725,-36.2572],[-72.3513,-36.2452],[-72.3456,-36.2369],[-72.334,-36.2332],[-72.3211,-36.2325],[-72.3198,-36.2336],[-72.3133,-36.2331],[-72.2983,-36.2472],[-72.2943,-36.2542],[-72.2843,-36.2556],[-72.2776,-36.2604],[-72.2855,-36.27],[-72.2909,-36.2795],[-72.3006,-36.2897],[-72.3196,-36.28],[-72.3166,-36.3017],[-72.3343,-36.336],[-72.3327,-36.3448],[-72.3246,-36.3504],[-72.3192,-36.3575],[-72.3099,-36.3639],[-72.3035,-36.3711],[-72.2978,-36.3744],[-72.2975,-36.3798],[-72.3003,-36.3874],[-72.3071,-36.3933],[-72.3135,-36.3935],[-72.3155,-36.3968],[-72.3253,-36.4015],[-72.3267,-36.4035],[-72.3372,-36.4065],[-72.3404,-36.4166],[-72.3398,-36.4236],[-72.3482,-36.4387],[-72.3489,-36.4435],[-72.3498,-36.4448],[-72.3519,-36.4435],[-72.3584,-36.4476],[-72.3634,-36.4473],[-72.3641,-36.4488],[-72.3612,-36.4533],[-72.3689,-36.4558],[-72.3684,-36.4621],[-72.3702,-36.4646],[-72.3635,-36.4773],[-72.3752,-36.4759],[-72.3918,-36.4842],[-72.3953,-36.4822],[-72.401,-36.4827],[-72.4033,-36.4804],[-72.4099,-36.4806],[-72.4133,-36.4755],[-72.416,-36.4745],[-72.4216,-36.4765],[-72.4259,-36.4706],[-72.4307,-36.4705],[-72.4369,-36.4734],[-72.4465,-36.4677],[-72.452,-36.4685],[-72.4536,-36.4701],[-72.4718,-36.4702],[-72.4884,-36.458],[-72.4925,-36.4567],[-72.4929,-36.4519],[-72.4889,-36.4432],[-72.4895,-36.4401],[-72.4933,-36.4367],[-72.5036,-36.4352],[-72.5286,-36.4358],[-72.5371,-36.43],[-72.5382,-36.421],[-72.552,-36.4161],[-72.5505,-36.4121],[-72.5454,-36.4099],[-72.5459,-36.4052],[-72.542,-36.4046],[-72.5415,-36.402],[-72.5387,-36.4012],[-72.5422,-36.3975],[-72.5432,-36.3937],[-72.5416,-36.3914],[-72.5427,-36.3896],[-72.5396,-36.3865],[-72.5397,-36.3824],[-72.5416,-36.3808],[-72.5395,-36.3781],[-72.5407,-36.3711],[-72.5348,-36.369],[-72.5303,-36.3702],[-72.5303,-36.3675],[-72.5255,-36.3654],[-72.5236,-36.3611],[-72.5152,-36.3601],[-72.514,-36.3578],[-72.5066,-36.3598],[-72.5046,-36.3571],[-72.5005,-36.3567],[-72.4983,-36.3534],[-72.4856,-36.347],[-72.477,-36.348],[-72.4569,-36.3547],[-72.4582,-36.3517],[-72.4556,-36.3442],[-72.4584,-36.3409],[-72.4593,-36.3342],[-72.4647,-36.3334],[-72.4671,-36.3316],[-72.467,-36.327],[-72.4711,-36.3166],[-72.4833,-36.2949],[-72.4767,-36.2901],[-72.4791,-36.2873],[-72.478,-36.2827],[-72.4703,-36.2826],[-72.4679,-36.28],[-72.4631,-36.2813],[-72.4578,-36.2794],[-72.4645,-36.2729],[-72.4559,-36.2702],[-72.453,-36.2664],[-72.4509,-36.2564],[-72.4547,-36.2571],[-72.4549,-36.2546],[-72.4509,-36.2451],[-72.4569,-36.2408],[-72.4552,-36.2373],[-72.4449,-36.2386],[-72.4436,-36.245],[-72.4351,-36.2482],[-72.4405,-36.2288],[-72.4349,-36.2305],[-72.4354,-36.2281],[-72.4331,-36.227],[-72.4182,-36.2297],[-72.4126,-36.2276],[-72.4126,-36.2225]]]]}},{"type":"Feature","properties":{"comunaId":"CHL.13.2.4_1","nombre":"Portezuelo","provincia":"Itata","regionGadm":"Ñuble","centerLat":-36.537,"centerLon":-72.48},"geometry":{"type":"MultiPolygon","coordinates":[[[[-72.3952,-36.6173],[-72.4004,-36.6196],[-72.4081,-36.6287],[-72.4145,-36.6299],[-72.4334,-36.64],[-72.4518,-36.6418],[-72.4596,-36.6401],[-72.4653,-36.6444],[-72.468,-36.6437],[-72.4715,-36.6415],[-72.4771,-36.6316],[-72.4856,-36.6282],[-72.4935,-36.6218],[-72.4977,-36.6221],[-72.5098,-36.6144],[-72.5135,-36.607],[-72.5161,-36.6053],[-72.5302,-36.5989],[-72.5491,-36.5955],[-72.5518,-36.5915],[-72.5559,-36.5901],[-72.5568,-36.5862],[-72.5597,-36.5847],[-72.558,-36.5798],[-72.5655,-36.575],[-72.5681,-36.5691],[-72.5825,-36.5706],[-72.5912,-36.5694],[-72.5966,-36.5638],[-72.5966,-36.5599],[-72.5991,-36.5567],[-72.6001,-36.5507],[-72.6055,-36.5485],[-72.6054,-36.5442],[-72.6081,-36.5423],[-72.6137,-36.5419],[-72.6203,-36.537],[-72.6234,-36.5308],[-72.6277,-36.5293],[-72.6287,-36.5272],[-72.6192,-36.5224],[-72.6116,-36.5263],[-72.6102,-36.5296],[-72.6065,-36.5291],[-72.5791,-36.5362],[-72.5764,-36.5344],[-72.5691,-36.5374],[-72.5653,-36.5324],[-72.5582,-36.5349],[-72.5495,-36.5307],[-72.5483,-36.5276],[-72.5507,-36.5178],[-72.5485,-36.5121],[-72.542,-36.5081],[-72.5437,-36.499],[-72.5316,-36.4928],[-72.5271,-36.4864],[-72.5253,-36.4786],[-72.5165,-36.4777],[-72.5078,-36.4688],[-72.5083,-36.4617],[-72.5045,-36.4485],[-72.5089,-36.4386],[-72.5084,-36.4354],[-72.4957,-36.436],[-72.4902,-36.4392],[-72.4889,-36.4432],[-72.4929,-36.4519],[-72.4925,-36.4567],[-72.4884,-36.458],[-72.4711,-36.4705],[-72.4536,-36.4701],[-72.452,-36.4685],[-72.4465,-36.4677],[-72.4369,-36.4734],[-72.4307,-36.4705],[-72.4259,-36.4706],[-72.4216,-36.4765],[-72.416,-36.4745],[-72.4133,-36.4755],[-72.4099,-36.4806],[-72.4033,-36.4804],[-72.401,-36.4827],[-72.3953,-36.4822],[-72.3925,-36.4842],[-72.3843,-36.4815],[-72.3817,-36.4786],[-72.3752,-36.4759],[-72.3712,-36.4759],[-72.3687,-36.4824],[-72.359,-36.4851],[-72.3589,-36.494],[-72.3532,-36.4988],[-72.3605,-36.5066],[-72.3624,-36.5113],[-72.3619,-36.5179],[-72.3592,-36.5205],[-72.3577,-36.5277],[-72.3607,-36.5333],[-72.3614,-36.5408],[-72.3647,-36.5502],[-72.3632,-36.5516],[-72.3613,-36.5621],[-72.3761,-36.5799],[-72.382,-36.5769],[-72.3862,-36.577],[-72.3849,-36.578],[-72.3878,-36.5815],[-72.3888,-36.5918],[-72.3911,-36.5965],[-72.3905,-36.604],[-72.3921,-36.607],[-72.3953,-36.6087],[-72.3952,-36.6173]]]]}},{"type":"Feature","properties":{"comunaId":"CHL.13.2.5_1","nombre":"Quirihue","provincia":"Itata","regionGadm":"Ñuble","centerLat":-36.2305,"centerLon":-72.5513},"geometry":{"type":"MultiPolygon","coordinates":[[[[-72.593,-36.0651],[-72.5885,-36.0653],[-72.5875,-36.0683],[-72.5906,-36.0721],[-72.5828,-36.078],[-72.5802,-36.0751],[-72.5719,-36.074],[-72.548,-36.0779],[-72.5439,-36.0752],[-72.5416,-36.0762],[-72.5368,-36.0698],[-72.5306,-36.0695],[-72.5241,-36.0731],[-72.5235,-36.0762],[-72.5205,-36.077],[-72.5186,-36.0801],[-72.5121,-36.0809],[-72.5084,-36.0764],[-72.5037,-36.0761],[-72.5005,-36.0732],[-72.4927,-36.0723],[-72.4873,-36.0776],[-72.4873,-36.0799],[-72.4927,-36.086],[-72.5014,-36.0857],[-72.497,-36.0945],[-72.5005,-36.0976],[-72.5007,-36.1002],[-72.4996,-36.1027],[-72.4928,-36.1071],[-72.4909,-36.1214],[-72.4883,-36.1237],[-72.4885,-36.1256],[-72.4893,-36.1274],[-72.4947,-36.1289],[-72.4928,-36.1353],[-72.4983,-36.1351],[-72.4976,-36.1385],[-72.5015,-36.1408],[-72.5018,-36.1434],[-72.4818,-36.1497],[-72.4779,-36.1528],[-72.4726,-36.1522],[-72.4697,-36.1482],[-72.4678,-36.148],[-72.4528,-36.1501],[-72.4435,-36.156],[-72.4301,-36.158],[-72.4264,-36.1572],[-72.4249,-36.1611],[-72.4221,-36.1632],[-72.4215,-36.1699],[-72.4022,-36.176],[-72.3995,-36.1743],[-72.3897,-36.1752],[-72.3856,-36.1738],[-72.3818,-36.17],[-72.3734,-36.1699],[-72.3708,-36.164],[-72.3587,-36.1574],[-72.3521,-36.1677],[-72.3449,-36.1735],[-72.3384,-36.1744],[-72.3364,-36.1801],[-72.3378,-36.2055],[-72.3601,-36.2148],[-72.4122,-36.2078],[-72.4126,-36.2276],[-72.4185,-36.2297],[-72.4331,-36.227],[-72.4354,-36.2281],[-72.4356,-36.2306],[-72.4405,-36.2288],[-72.4351,-36.2482],[-72.4436,-36.245],[-72.4449,-36.2386],[-72.4552,-36.2373],[-72.4569,-36.2408],[-72.4509,-36.2451],[-72.4549,-36.2546],[-72.4547,-36.2571],[-72.4509,-36.2564],[-72.453,-36.2664],[-72.4559,-36.2702],[-72.4645,-36.2729],[-72.4578,-36.2794],[-72.4631,-36.2813],[-72.4679,-36.28],[-72.4703,-36.2826],[-72.478,-36.2827],[-72.4791,-36.2873],[-72.4767,-36.2901],[-72.4833,-36.2949],[-72.4711,-36.3166],[-72.467,-36.327],[-72.4671,-36.3316],[-72.4647,-36.3334],[-72.4593,-36.3342],[-72.4584,-36.3409],[-72.4556,-36.3442],[-72.4582,-36.3517],[-72.4569,-36.3547],[-72.477,-36.348],[-72.4856,-36.347],[-72.4983,-36.3534],[-72.5005,-36.3567],[-72.5046,-36.3571],[-72.5066,-36.3598],[-72.514,-36.3578],[-72.5152,-36.3601],[-72.5236,-36.3611],[-72.5255,-36.3654],[-72.5303,-36.3675],[-72.5303,-36.3702],[-72.5348,-36.369],[-72.5407,-36.3711],[-72.5395,-36.3781],[-72.5416,-36.3808],[-72.5397,-36.3824],[-72.5396,-36.3865],[-72.5427,-36.3896],[-72.5416,-36.3914],[-72.5432,-36.3937],[-72.5422,-36.3975],[-72.5387,-36.4012],[-72.5415,-36.402],[-72.542,-36.4046],[-72.5459,-36.4052],[-72.5454,-36.4099],[-72.5505,-36.4121],[-72.552,-36.4161],[-72.5616,-36.4174],[-72.5635,-36.4231],[-72.5732,-36.4262],[-72.5759,-36.4259],[-72.5832,-36.4208],[-72.5802,-36.4166],[-72.5751,-36.417],[-72.5742,-36.4143],[-72.5704,-36.4112],[-72.5759,-36.4003],[-72.5844,-36.3899],[-72.5851,-36.3866],[-72.593,-36.3958],[-72.6021,-36.3988],[-72.605,-36.3975],[-72.6184,-36.4077],[-72.635,-36.4066],[-72.6382,-36.4034],[-72.6396,-36.3971],[-72.644,-36.3933],[-72.6438,-36.3892],[-72.639,-36.3812],[-72.646,-36.377],[-72.6478,-36.369],[-72.6467,-36.366],[-72.6496,-36.3599],[-72.6565,-36.3573],[-72.6571,-36.3547],[-72.6588,-36.3542],[-72.6585,-36.3469],[-72.6609,-36.346],[-72.6595,-36.3448],[-72.6585,-36.3307],[-72.6614,-36.3272],[-72.661,-36.3254],[-72.6563,-36.3233],[-72.6574,-36.3182],[-72.6495,-36.3141],[-72.6515,-36.3068],[-72.6455,-36.3056],[-72.6408,-36.3101],[-72.6352,-36.3034],[-72.6317,-36.3049],[-72.6254,-36.3021],[-72.6257,-36.2997],[-72.6288,-36.2968],[-72.6269,-36.294],[-72.6274,-36.2884],[-72.6238,-36.2847],[-72.6218,-36.2748],[-72.6194,-36.2718],[-72.6196,-36.2666],[-72.627,-36.2645],[-72.6306,-36.258],[-72.6438,-36.2566],[-72.6425,-36.2528],[-72.6372,-36.2482],[-72.6388,-36.2421],[-72.6353,-36.2372],[-72.6363,-36.2304],[-72.6403,-36.2261],[-72.6423,-36.2165],[-72.6452,-36.2129],[-72.6432,-36.2098],[-72.6454,-36.2074],[-72.6461,-36.2029],[-72.6425,-36.196],[-72.6447,-36.1902],[-72.6466,-36.1895],[-72.654,-36.1921],[-72.6545,-36.1905],[-72.6523,-36.1888],[-72.6538,-36.186],[-72.6644,-36.1758],[-72.6741,-36.1712],[-72.6899,-36.1676],[-72.6955,-36.169],[-72.6978,-36.168],[-72.6994,-36.1659],[-72.6998,-36.1576],[-72.7038,-36.1502],[-72.7068,-36.1478],[-72.7026,-36.1424],[-72.6946,-36.1384],[-72.6895,-36.1404],[-72.6874,-36.1368],[-72.6834,-36.1396],[-72.6767,-36.1405],[-72.6751,-36.1421],[-72.6757,-36.1439],[-72.6632,-36.1391],[-72.6483,-36.1386],[-72.6459,-36.1363],[-72.6401,-36.1361],[-72.6353,-36.1319],[-72.6222,-36.127],[-72.6171,-36.1214],[-72.6008,-36.1152],[-72.5936,-36.109],[-72.5728,-36.1124],[-72.5691,-36.1144],[-72.5696,-36.1157],[-72.5675,-36.118],[-72.5635,-36.1174],[-72.5599,-36.1126],[-72.5529,-36.1118],[-72.5542,-36.1034],[-72.5606,-36.1051],[-72.5623,-36.1048],[-72.5629,-36.1026],[-72.5662,-36.1031],[-72.5672,-36.1002],[-72.5729,-36.0967],[-72.5716,-36.093],[-72.5729,-36.0934],[-72.5756,-36.0902],[-72.5798,-36.0881],[-72.5839,-36.0919],[-72.5895,-36.0897],[-72.5919,-36.0903],[-72.593,-36.0651]]]]}},{"type":"Feature","properties":{"comunaId":"CHL.13.2.6_1","nombre":"Ranquil","provincia":"Itata","regionGadm":"Ñuble","centerLat":-36.6516,"centerLon":-72.5918},"geometry":{"type":"MultiPolygon","coordinates":[[[[-72.5935,-36.7318],[-72.5955,-36.7338],[-72.5995,-36.7313],[-72.6002,-36.724],[-72.6069,-36.7165],[-72.612,-36.7045],[-72.6181,-36.703],[-72.6166,-36.7013],[-72.6214,-36.6965],[-72.6186,-36.6951],[-72.6172,-36.6911],[-72.6189,-36.6897],[-72.6224,-36.6908],[-72.6315,-36.6858],[-72.6374,-36.6862],[-72.6418,-36.6818],[-72.6459,-36.6817],[-72.646,-36.6792],[-72.6523,-36.6741],[-72.6525,-36.6694],[-72.6543,-36.6665],[-72.6577,-36.6663],[-72.6662,-36.6694],[-72.6726,-36.6646],[-72.6774,-36.6631],[-72.688,-36.6545],[-72.6974,-36.6526],[-72.7154,-36.656],[-72.7196,-36.6554],[-72.7329,-36.6436],[-72.7353,-36.6377],[-72.7336,-36.6342],[-72.7323,-36.623],[-72.7337,-36.6173],[-72.7225,-36.6149],[-72.7172,-36.6118],[-72.7048,-36.6144],[-72.6958,-36.6141],[-72.6819,-36.6098],[-72.6762,-36.6061],[-72.6696,-36.6059],[-72.6656,-36.6005],[-72.6592,-36.6007],[-72.655,-36.5972],[-72.6519,-36.5971],[-72.649,-36.5936],[-72.6506,-36.5851],[-72.6469,-36.5778],[-72.6435,-36.5755],[-72.6429,-36.5686],[-72.63,-36.5619],[-72.6164,-36.5523],[-72.6163,-36.5503],[-72.6049,-36.5453],[-72.6055,-36.5485],[-72.6001,-36.5507],[-72.5991,-36.5567],[-72.5966,-36.5599],[-72.5966,-36.5638],[-72.5912,-36.5694],[-72.5825,-36.5706],[-72.5681,-36.5691],[-72.5655,-36.575],[-72.558,-36.5798],[-72.5597,-36.5847],[-72.5568,-36.5862],[-72.5559,-36.5901],[-72.5518,-36.5915],[-72.5491,-36.5955],[-72.5302,-36.5989],[-72.5146,-36.6062],[-72.5098,-36.6144],[-72.4977,-36.6221],[-72.4935,-36.6218],[-72.4856,-36.6282],[-72.4771,-36.6316],[-72.4715,-36.6415],[-72.4659,-36.6439],[-72.4626,-36.6489],[-72.4563,-36.6509],[-72.4487,-36.6599],[-72.4533,-36.6656],[-72.4499,-36.6748],[-72.452,-36.6776],[-72.4653,-36.6835],[-72.469,-36.6823],[-72.4712,-36.6838],[-72.4713,-36.6867],[-72.4736,-36.6877],[-72.4861,-36.6877],[-72.4927,-36.6902],[-72.5072,-36.6895],[-72.5118,-36.6937],[-72.5147,-36.7017],[-72.5215,-36.7023],[-72.5327,-36.7095],[-72.5378,-36.7101],[-72.5432,-36.707],[-72.5478,-36.7068],[-72.5553,-36.7009],[-72.5584,-36.7012],[-72.5605,-36.698],[-72.5665,-36.6967],[-72.5724,-36.6986],[-72.5771,-36.6974],[-72.5795,-36.6988],[-72.5794,-36.7011],[-72.5816,-36.7032],[-72.5821,-36.71],[-72.5868,-36.7132],[-72.5901,-36.713],[-72.5909,-36.7166],[-72.5878,-36.7205],[-72.5879,-36.726],[-72.5865,-36.7272],[-72.5891,-36.7306],[-72.5935,-36.7318]]]]}},{"type":"Feature","properties":{"comunaId":"CHL.13.2.7_1","nombre":"Treguaco","provincia":"Itata","regionGadm":"Ñuble","centerLat":-36.4023,"centerLon":-72.6921},"geometry":{"type":"MultiPolygon","coordinates":[[[[-72.8522,-36.3594],[-72.8467,-36.3549],[-72.8463,-36.3562],[-72.8443,-36.3554],[-72.8442,-36.3534],[-72.8402,-36.3532],[-72.8356,-36.3507],[-72.8228,-36.3539],[-72.8129,-36.3516],[-72.8101,-36.3537],[-72.8067,-36.3512],[-72.8073,-36.3468],[-72.8034,-36.3455],[-72.8039,-36.3421],[-72.8011,-36.3416],[-72.7997,-36.3356],[-72.7947,-36.3367],[-72.7936,-36.3355],[-72.7966,-36.3342],[-72.7893,-36.3344],[-72.7914,-36.3323],[-72.7897,-36.3308],[-72.7841,-36.3325],[-72.7824,-36.3312],[-72.7823,-36.3326],[-72.7795,-36.3308],[-72.7776,-36.3307],[-72.7774,-36.332],[-72.7758,-36.331],[-72.7738,-36.3354],[-72.7719,-36.335],[-72.7718,-36.3327],[-72.7696,-36.3347],[-72.7674,-36.3327],[-72.7659,-36.3371],[-72.7612,-36.3393],[-72.762,-36.3418],[-72.7595,-36.3442],[-72.7613,-36.3481],[-72.7574,-36.3476],[-72.7533,-36.3435],[-72.7519,-36.3482],[-72.7532,-36.3502],[-72.7481,-36.3536],[-72.7478,-36.3556],[-72.7444,-36.3565],[-72.7383,-36.3527],[-72.731,-36.3544],[-72.7289,-36.3536],[-72.7257,-36.3474],[-72.7146,-36.3482],[-72.7061,-36.3437],[-72.696,-36.3423],[-72.6888,-36.3369],[-72.689,-36.3313],[-72.6849,-36.328],[-72.6821,-36.3282],[-72.6816,-36.3298],[-72.6752,-36.3289],[-72.6745,-36.3311],[-72.6707,-36.3332],[-72.6656,-36.3312],[-72.6614,-36.3272],[-72.6585,-36.3307],[-72.6595,-36.3448],[-72.6609,-36.346],[-72.6585,-36.3469],[-72.6588,-36.3542],[-72.6571,-36.3547],[-72.6565,-36.3573],[-72.6496,-36.3599],[-72.6467,-36.366],[-72.6478,-36.369],[-72.646,-36.377],[-72.639,-36.3812],[-72.6438,-36.3892],[-72.644,-36.3933],[-72.6396,-36.3971],[-72.6382,-36.4034],[-72.6354,-36.4062],[-72.6291,-36.4079],[-72.6184,-36.4077],[-72.605,-36.3975],[-72.6021,-36.3988],[-72.593,-36.3958],[-72.5851,-36.3866],[-72.5844,-36.3899],[-72.5759,-36.4003],[-72.5705,-36.4109],[-72.5751,-36.417],[-72.5802,-36.4166],[-72.5832,-36.4208],[-72.5759,-36.4259],[-72.5641,-36.4236],[-72.5616,-36.4174],[-72.5507,-36.416],[-72.5382,-36.421],[-72.5371,-36.43],[-72.5295,-36.4354],[-72.5084,-36.4354],[-72.5089,-36.4386],[-72.5045,-36.4485],[-72.5083,-36.4617],[-72.5078,-36.4688],[-72.5165,-36.4777],[-72.5253,-36.4786],[-72.5271,-36.4864],[-72.5316,-36.4928],[-72.5437,-36.499],[-72.542,-36.5081],[-72.5485,-36.5121],[-72.5507,-36.5178],[-72.5483,-36.5274],[-72.5491,-36.5303],[-72.5576,-36.5347],[-72.562,-36.5343],[-72.5644,-36.5321],[-72.5686,-36.5374],[-72.5764,-36.5344],[-72.5791,-36.5362],[-72.6065,-36.5291],[-72.6102,-36.5296],[-72.6116,-36.5263],[-72.6192,-36.5224],[-72.6275,-36.5259],[-72.6291,-36.5245],[-72.6358,-36.5242],[-72.6431,-36.5209],[-72.6467,-36.5157],[-72.6545,-36.5135],[-72.6619,-36.5053],[-72.6682,-36.5051],[-72.6732,-36.5027],[-72.6834,-36.4883],[-72.6895,-36.4856],[-72.6918,-36.4762],[-72.6971,-36.4715],[-72.6963,-36.4645],[-72.6936,-36.4638],[-72.6928,-36.462],[-72.6941,-36.4589],[-72.7001,-36.4547],[-72.6975,-36.4438],[-72.6951,-36.4412],[-72.6972,-36.4358],[-72.7026,-36.4293],[-72.7029,-36.4252],[-72.708,-36.4241],[-72.7099,-36.4212],[-72.7197,-36.42],[-72.7242,-36.4222],[-72.7284,-36.4204],[-72.7298,-36.413],[-72.7343,-36.408],[-72.7339,-36.4063],[-72.7386,-36.4041],[-72.7539,-36.4072],[-72.7594,-36.4059],[-72.7629,-36.403],[-72.7685,-36.4025],[-72.7716,-36.398],[-72.7817,-36.4],[-72.7933,-36.3988],[-72.801,-36.3927],[-72.8224,-36.3815],[-72.8469,-36.3881],[-72.8706,-36.3897],[-72.8698,-36.3828],[-72.8657,-36.377],[-72.8605,-36.3631],[-72.8573,-36.3599],[-72.8522,-36.3594]]]]}},{"type":"Feature","properties":{"comunaId":"CHL.13.3.1_1","nombre":"Coihueco","provincia":"Punilla","regionGadm":"Ñuble","centerLat":-36.7169,"centerLon":-71.5535},"geometry":{"type":"MultiPolygon","coordinates":[[[[-71.0881,-36.9378],[-71.1001,-36.9571],[-71.1,-36.9647],[-71.1055,-36.9708],[-71.1168,-36.9682],[-71.128,-36.9724],[-71.1289,-36.9775],[-71.1472,-36.9814],[-71.1683,-36.9769],[-71.1744,-36.9679],[-71.1856,-36.9682],[-71.2041,-36.9749],[-71.2191,-36.9733],[-71.2219,-36.9763],[-71.2219,-36.9793],[-71.2241,-36.9791],[-71.2251,-36.9762],[-71.2214,-36.9705],[-71.2234,-36.966],[-71.2378,-36.9573],[-71.2461,-36.9545],[-71.2507,-36.9491],[-71.2604,-36.9421],[-71.2611,-36.939],[-71.2549,-36.9302],[-71.2607,-36.9148],[-71.2674,-36.9155],[-71.2779,-36.9096],[-71.2838,-36.9128],[-71.2879,-36.9178],[-71.2925,-36.9178],[-71.303,-36.9225],[-71.3293,-36.9192],[-71.333,-36.9173],[-71.3354,-36.9137],[-71.3449,-36.9112],[-71.3447,-36.9081],[-71.3395,-36.9008],[-71.3399,-36.8974],[-71.3506,-36.8946],[-71.3599,-36.8852],[-71.3643,-36.8774],[-71.3719,-36.8753],[-71.3885,-36.857],[-71.3988,-36.8505],[-71.4036,-36.8418],[-71.4036,-36.8371],[-71.4062,-36.8317],[-71.4206,-36.8223],[-71.4309,-36.8123],[-71.4357,-36.8116],[-71.4407,-36.8135],[-71.4473,-36.8176],[-71.4509,-36.8235],[-71.4548,-36.8243],[-71.4574,-36.8268],[-71.4713,-36.8278],[-71.4778,-36.8257],[-71.4915,-36.8247],[-71.5042,-36.8286],[-71.5073,-36.8309],[-71.5124,-36.831],[-71.5143,-36.8362],[-71.5202,-36.8388],[-71.5358,-36.8394],[-71.5486,-36.8438],[-71.5617,-36.8459],[-71.5702,-36.8442],[-71.5787,-36.8385],[-71.6113,-36.8305],[-71.6205,-36.8209],[-71.6205,-36.8183],[-71.6232,-36.8151],[-71.6281,-36.8148],[-71.6304,-36.8101],[-71.6432,-36.8056],[-71.6482,-36.8015],[-71.6665,-36.7998],[-71.6693,-36.7971],[-71.6741,-36.796],[-71.6894,-36.7977],[-71.6918,-36.7965],[-71.6964,-36.7983],[-71.7062,-36.7967],[-71.7216,-36.7987],[-71.7273,-36.7978],[-71.7378,-36.7933],[-71.7451,-36.7942],[-71.7551,-36.7925],[-71.7683,-36.7857],[-71.7711,-36.7807],[-71.777,-36.7755],[-71.7798,-36.7752],[-71.781,-36.7724],[-71.7951,-36.7672],[-71.7981,-36.7632],[-71.7965,-36.7586],[-71.7984,-36.7549],[-71.7982,-36.7513],[-71.804,-36.7452],[-71.8101,-36.7442],[-71.8134,-36.7411],[-71.8218,-36.741],[-71.8347,-36.7278],[-71.8362,-36.7222],[-71.84,-36.7184],[-71.8474,-36.714],[-71.8523,-36.7153],[-71.8596,-36.7136],[-71.8645,-36.7071],[-71.8707,-36.7029],[-71.8763,-36.7016],[-71.88,-36.696],[-71.8916,-36.694],[-71.8984,-36.6907],[-71.9023,-36.6911],[-71.9057,-36.686],[-71.9079,-36.686],[-71.9132,-36.6811],[-71.9123,-36.6781],[-71.9136,-36.677],[-71.9205,-36.6749],[-71.9254,-36.6755],[-71.9303,-36.6681],[-71.9395,-36.6661],[-71.9462,-36.6593],[-71.9533,-36.6565],[-71.9494,-36.6482],[-71.9516,-36.6472],[-71.9507,-36.6449],[-71.9537,-36.6433],[-71.9509,-36.6373],[-71.9556,-36.6358],[-71.9573,-36.6328],[-71.9764,-36.6256],[-71.9783,-36.6277],[-71.9766,-36.6286],[-71.9785,-36.6314],[-71.9821,-36.6295],[-71.9825,-36.6279],[-71.9793,-36.6247],[-71.993,-36.6207],[-71.9894,-36.6179],[-71.9941,-36.6153],[-71.9926,-36.6114],[-71.9958,-36.6114],[-71.9989,-36.618],[-72.0025,-36.616],[-72.0007,-36.6124],[-72.0296,-36.6045],[-72.0232,-36.5913],[-72.0289,-36.5899],[-72.0211,-36.5786],[-72.0372,-36.5743],[-72.0356,-36.5718],[-72.0315,-36.5727],[-72.0289,-36.5677],[-72.0245,-36.5693],[-72.0203,-36.5628],[-72.0157,-36.5614],[-72.015,-36.5575],[-72.0167,-36.556],[-72.013,-36.5549],[-72.0083,-36.5567],[-72.0014,-36.5638],[-71.9985,-36.5644],[-71.9765,-36.5636],[-71.9745,-36.5626],[-71.9751,-36.5603],[-71.9702,-36.5587],[-71.9615,-36.5658],[-71.9503,-36.5675],[-71.945,-36.5641],[-71.9293,-36.5631],[-71.9176,-36.5644],[-71.911,-36.561],[-71.9033,-36.5623],[-71.8914,-36.5683],[-71.8829,-36.5639],[-71.8772,-36.5648],[-71.8728,-36.5432],[-71.8616,-36.5418],[-71.8579,-36.5273],[-71.8585,-36.5169],[-71.8569,-36.5142],[-71.8512,-36.5137],[-71.8471,-36.5111],[-71.8328,-36.5101],[-71.8277,-36.5058],[-71.8198,-36.5074],[-71.8137,-36.5021],[-71.8125,-36.4989],[-71.8001,-36.498],[-71.7934,-36.4923],[-71.7875,-36.4909],[-71.7855,-36.4821],[-71.7833,-36.4801],[-71.7658,-36.4798],[-71.7486,-36.4856],[-71.741,-36.4823],[-71.7264,-36.4852],[-71.7167,-36.4828],[-71.7031,-36.4823],[-71.6963,-36.4835],[-71.699,-36.4873],[-71.6979,-36.4909],[-71.6939,-36.4926],[-71.6872,-36.4921],[-71.6852,-36.4947],[-71.6866,-36.5045],[-71.684,-36.5083],[-71.6849,-36.5178],[-71.6812,-36.523],[-71.6577,-36.5236],[-71.6408,-36.5173],[-71.6343,-36.5179],[-71.6323,-36.5142],[-71.6239,-36.5163],[-71.6189,-36.5155],[-71.6137,-36.5213],[-71.6083,-36.5186],[-71.6049,-36.5189],[-71.5926,-36.5282],[-71.5967,-36.5352],[-71.5943,-36.5407],[-71.586,-36.5411],[-71.5884,-36.5497],[-71.5803,-36.5514],[-71.5693,-36.5568],[-71.5675,-36.56],[-71.561,-36.5638],[-71.565,-36.5653],[-71.565,-36.5669],[-71.5591,-36.5691],[-71.5543,-36.5741],[-71.5446,-36.5706],[-71.5338,-36.5824],[-71.5197,-36.5883],[-71.5219,-36.5927],[-71.5205,-36.5969],[-71.5037,-36.5997],[-71.4965,-36.6066],[-71.493,-36.6062],[-71.4891,-36.6033],[-71.4858,-36.6038],[-71.4813,-36.6063],[-71.4771,-36.6116],[-71.4742,-36.6115],[-71.4718,-36.6084],[-71.4665,-36.6089],[-71.4647,-36.6109],[-71.468,-36.6124],[-71.4635,-36.6156],[-71.4526,-36.6133],[-71.4487,-36.6212],[-71.4503,-36.6245],[-71.4476,-36.626],[-71.4455,-36.6262],[-71.4418,-36.6193],[-71.4392,-36.6191],[-71.438,-36.6217],[-71.4399,-36.6257],[-71.439,-36.6288],[-71.4295,-36.6332],[-71.4261,-36.6324],[-71.4244,-36.6374],[-71.4219,-36.6387],[-71.4141,-36.6377],[-71.4033,-36.6427],[-71.3952,-36.6528],[-71.39,-36.6531],[-71.389,-36.6506],[-71.3856,-36.6552],[-71.3827,-36.6559],[-71.3709,-36.6539],[-71.3639,-36.6561],[-71.3556,-36.6539],[-71.3477,-36.6543],[-71.3394,-36.6577],[-71.3322,-36.6651],[-71.3258,-36.6628],[-71.3209,-36.6635],[-71.3145,-36.6671],[-71.3074,-36.6686],[-71.3045,-36.6732],[-71.292,-36.6783],[-71.2895,-36.6815],[-71.2898,-36.6852],[-71.2812,-36.6876],[-71.2811,-36.6914],[-71.2783,-36.697],[-71.2838,-36.6999],[-71.2826,-36.7019],[-71.284,-36.7039],[-71.2803,-36.7084],[-71.2797,-36.7125],[-71.2736,-36.7149],[-71.2625,-36.7309],[-71.2663,-36.7361],[-71.2648,-36.7382],[-71.2656,-36.7428],[-71.2643,-36.7493],[-71.2659,-36.7514],[-71.2635,-36.7577],[-71.2661,-36.7606],[-71.2656,-36.7646],[-71.263,-36.7693],[-71.2601,-36.7706],[-71.2594,-36.774],[-71.2552,-36.7761],[-71.2555,-36.7865],[-71.2491,-36.7906],[-71.2512,-36.8083],[-71.2547,-36.8132],[-71.2529,-36.821],[-71.2498,-36.8252],[-71.2486,-36.8369],[-71.2347,-36.8438],[-71.233,-36.8486],[-71.2259,-36.853],[-71.2257,-36.8592],[-71.2236,-36.8617],[-71.212,-36.8672],[-71.2095,-36.8703],[-71.21,-36.8719],[-71.2028,-36.8744],[-71.2057,-36.8804],[-71.2045,-36.8834],[-71.2002,-36.8853],[-71.2002,-36.8895],[-71.1973,-36.8923],[-71.1972,-36.8951],[-71.1945,-36.8969],[-71.1955,-36.9012],[-71.186,-36.9053],[-71.1829,-36.9104],[-71.1794,-36.9115],[-71.175,-36.918],[-71.1649,-36.9223],[-71.1542,-36.9408],[-71.1442,-36.9423],[-71.1407,-36.9406],[-71.1357,-36.9414],[-71.128,-36.9469],[-71.1209,-36.9396],[-71.1117,-36.9368],[-71.1094,-36.9368],[-71.1082,-36.9391],[-71.1049,-36.9374],[-71.0993,-36.9384],[-71.095,-36.9358],[-71.0938,-36.9388],[-71.0881,-36.9378]]]]}},{"type":"Feature","properties":{"comunaId":"CHL.13.3.2_1","nombre":"Ñiquén","provincia":"Punilla","regionGadm":"Ñuble","centerLat":-36.2738,"centerLon":-71.9274},"geometry":{"type":"MultiPolygon","coordinates":[[[[-72.1391,-36.2459],[-72.1425,-36.2427],[-72.1424,-36.2391],[-72.138,-36.2353],[-72.1381,-36.2326],[-72.135,-36.2292],[-72.1364,-36.2212],[-72.1308,-36.2173],[-72.1317,-36.2035],[-72.1281,-36.2007],[-72.1313,-36.1917],[-72.1219,-36.1869],[-72.121,-36.1832],[-72.1191,-36.1802],[-72.115,-36.1783],[-72.1139,-36.1741],[-72.1058,-36.169],[-72.1047,-36.1639],[-72.1012,-36.162],[-72.1013,-36.1588],[-72.0986,-36.1561],[-72.0994,-36.1506],[-72.0978,-36.1467],[-72.1033,-36.1433],[-72.1032,-36.1233],[-72.0984,-36.1256],[-72.1002,-36.1354],[-72.0991,-36.1371],[-72.0937,-36.1358],[-72.0883,-36.1306],[-72.0766,-36.1308],[-72.0723,-36.1368],[-72.0734,-36.1383],[-72.0783,-36.1389],[-72.0786,-36.1422],[-72.0691,-36.15],[-72.0729,-36.1514],[-72.0728,-36.1563],[-72.0668,-36.1575],[-72.0593,-36.1567],[-72.036,-36.1763],[-72.0315,-36.1765],[-72.0265,-36.1738],[-72.0235,-36.1744],[-72.0226,-36.1757],[-72.025,-36.1795],[-72.0246,-36.1835],[-72.0204,-36.1897],[-72.0116,-36.1916],[-72.011,-36.1951],[-72.0125,-36.1988],[-72.0007,-36.203],[-72.0005,-36.2055],[-71.9973,-36.2089],[-71.9906,-36.2087],[-71.9906,-36.2128],[-71.9997,-36.2169],[-71.9993,-36.2272],[-71.9932,-36.2315],[-71.9916,-36.2375],[-71.9922,-36.2418],[-71.9883,-36.2422],[-71.9826,-36.2395],[-71.9801,-36.2402],[-71.981,-36.2512],[-71.9743,-36.2586],[-71.9662,-36.2593],[-71.9638,-36.2524],[-71.9565,-36.2504],[-71.9545,-36.2518],[-71.9544,-36.2548],[-71.9444,-36.2586],[-71.9384,-36.2587],[-71.934,-36.257],[-71.9208,-36.2591],[-71.9155,-36.2651],[-71.9091,-36.2687],[-71.9048,-36.2661],[-71.8987,-36.2656],[-71.896,-36.2616],[-71.8881,-36.2626],[-71.8821,-36.259],[-71.8725,-36.2575],[-71.8682,-36.2536],[-71.8671,-36.2478],[-71.8635,-36.2459],[-71.8468,-36.2471],[-71.8483,-36.2543],[-71.8451,-36.2558],[-71.8383,-36.2545],[-71.8338,-36.2512],[-71.823,-36.256],[-71.816,-36.254],[-71.8116,-36.2548],[-71.8113,-36.2592],[-71.8046,-36.2627],[-71.8055,-36.2653],[-71.8024,-36.2691],[-71.8033,-36.2732],[-71.797,-36.2752],[-71.7963,-36.2782],[-71.7933,-36.2801],[-71.7942,-36.284],[-71.7903,-36.2868],[-71.7863,-36.2929],[-71.7741,-36.2971],[-71.7749,-36.3001],[-71.7683,-36.3033],[-71.7679,-36.3081],[-71.7632,-36.3084],[-71.7529,-36.3137],[-71.7509,-36.3163],[-71.7399,-36.3197],[-71.7372,-36.3243],[-71.7322,-36.3254],[-71.7286,-36.3302],[-71.7215,-36.3341],[-71.7143,-36.342],[-71.7134,-36.3452],[-71.7078,-36.3485],[-71.7008,-36.3482],[-71.701,-36.3533],[-71.6913,-36.3545],[-71.6878,-36.3587],[-71.6792,-36.3607],[-71.6763,-36.3599],[-71.6728,-36.3628],[-71.6684,-36.3622],[-71.6641,-36.3655],[-71.6579,-36.3663],[-71.6542,-36.3704],[-71.6451,-36.3713],[-71.6405,-36.3738],[-71.6383,-36.3804],[-71.6393,-36.3843],[-71.6355,-36.3904],[-71.6291,-36.3959],[-71.6732,-36.4242],[-71.6739,-36.4267],[-71.677,-36.4278],[-71.6787,-36.4319],[-71.686,-36.4366],[-71.6898,-36.4413],[-71.7259,-36.4183],[-71.7448,-36.4188],[-71.7552,-36.4216],[-71.7817,-36.4101],[-71.7933,-36.395],[-71.8045,-36.4079],[-71.8115,-36.4065],[-71.8207,-36.4169],[-71.8375,-36.4126],[-71.848,-36.4087],[-71.8677,-36.393],[-71.8745,-36.3895],[-71.8775,-36.3858],[-71.881,-36.3762],[-71.8888,-36.3702],[-71.8924,-36.3621],[-71.8954,-36.3604],[-71.8959,-36.3551],[-71.9032,-36.3485],[-71.9086,-36.3396],[-71.913,-36.3351],[-71.9173,-36.3334],[-71.929,-36.3175],[-71.9355,-36.3133],[-71.9381,-36.3094],[-71.942,-36.3082],[-71.9521,-36.2974],[-71.9573,-36.2992],[-71.96,-36.2978],[-71.9655,-36.3007],[-71.9749,-36.299],[-71.9808,-36.2999],[-71.9895,-36.2983],[-71.9929,-36.2948],[-72.002,-36.2924],[-72.0035,-36.2902],[-72.0199,-36.2927],[-72.0329,-36.2888],[-72.0347,-36.2905],[-72.0411,-36.2897],[-72.0426,-36.2924],[-72.0458,-36.2906],[-72.0541,-36.2923],[-72.0602,-36.2894],[-72.0697,-36.2907],[-72.0769,-36.2872],[-72.084,-36.2884],[-72.0899,-36.2844],[-72.1008,-36.2852],[-72.1114,-36.2835],[-72.115,-36.2794],[-72.1152,-36.2758],[-72.1237,-36.2738],[-72.1274,-36.2702],[-72.1349,-36.2673],[-72.1347,-36.2531],[-72.1391,-36.2459]]]]}},{"type":"Feature","properties":{"comunaId":"CHL.13.3.3_1","nombre":"SanCarlos","provincia":"Punilla","regionGadm":"Ñuble","centerLat":-36.4039,"centerLon":-72.0016},"geometry":{"type":"MultiPolygon","coordinates":[[[[-72.2776,-36.2615],[-72.2716,-36.2565],[-72.2551,-36.2342],[-72.247,-36.2178],[-72.2381,-36.2072],[-72.2205,-36.2079],[-72.2235,-36.2153],[-72.2169,-36.2154],[-72.2162,-36.2101],[-72.2109,-36.2109],[-72.2111,-36.2153],[-72.191,-36.2197],[-72.186,-36.2224],[-72.1865,-36.2258],[-72.1833,-36.2283],[-72.1543,-36.2353],[-72.1565,-36.2413],[-72.1521,-36.2418],[-72.1528,-36.2475],[-72.138,-36.2466],[-72.1347,-36.2531],[-72.1349,-36.2673],[-72.1274,-36.2702],[-72.1237,-36.2738],[-72.1152,-36.2758],[-72.115,-36.2794],[-72.1114,-36.2835],[-72.1008,-36.2852],[-72.0899,-36.2844],[-72.084,-36.2884],[-72.0769,-36.2872],[-72.0697,-36.2907],[-72.0602,-36.2894],[-72.0541,-36.2923],[-72.0458,-36.2906],[-72.0426,-36.2924],[-72.0411,-36.2897],[-72.0347,-36.2905],[-72.0329,-36.2888],[-72.0199,-36.2927],[-72.0035,-36.2902],[-72.002,-36.2924],[-71.9929,-36.2948],[-71.9895,-36.2983],[-71.9808,-36.2999],[-71.9749,-36.299],[-71.9655,-36.3007],[-71.96,-36.2978],[-71.9573,-36.2992],[-71.9521,-36.2974],[-71.942,-36.3082],[-71.9381,-36.3094],[-71.9355,-36.3133],[-71.929,-36.3175],[-71.9173,-36.3334],[-71.913,-36.3351],[-71.9086,-36.3396],[-71.9032,-36.3485],[-71.8959,-36.3551],[-71.8954,-36.3604],[-71.8924,-36.3621],[-71.8888,-36.3702],[-71.881,-36.3762],[-71.8775,-36.3858],[-71.8745,-36.3895],[-71.8677,-36.393],[-71.8476,-36.4089],[-71.8207,-36.4169],[-71.8115,-36.4065],[-71.8045,-36.4079],[-71.7933,-36.395],[-71.7817,-36.4101],[-71.7717,-36.4145],[-71.7552,-36.4216],[-71.7448,-36.4188],[-71.7259,-36.4183],[-71.7234,-36.4209],[-71.7088,-36.4282],[-71.6931,-36.4397],[-71.6757,-36.4462],[-71.684,-36.4617],[-71.675,-36.4643],[-71.6766,-36.4693],[-71.672,-36.4704],[-71.6712,-36.4724],[-71.6744,-36.4824],[-71.6707,-36.4843],[-71.6729,-36.4879],[-71.6661,-36.4932],[-71.681,-36.523],[-71.6849,-36.5178],[-71.684,-36.5083],[-71.6866,-36.5045],[-71.6852,-36.4947],[-71.6872,-36.4921],[-71.6939,-36.4926],[-71.6979,-36.4909],[-71.699,-36.4873],[-71.6963,-36.4835],[-71.7031,-36.4823],[-71.7167,-36.4828],[-71.7264,-36.4852],[-71.741,-36.4823],[-71.7486,-36.4856],[-71.7658,-36.4798],[-71.783,-36.48],[-71.7855,-36.4821],[-71.7875,-36.4909],[-71.7934,-36.4923],[-71.8001,-36.498],[-71.8125,-36.4989],[-71.8137,-36.5021],[-71.8198,-36.5074],[-71.8277,-36.5058],[-71.8328,-36.5101],[-71.8471,-36.5111],[-71.8512,-36.5137],[-71.8553,-36.5132],[-71.8573,-36.5164],[-71.8605,-36.5174],[-71.8812,-36.5185],[-71.8909,-36.5213],[-71.9067,-36.5183],[-71.9176,-36.5228],[-71.9313,-36.5224],[-71.9349,-36.5261],[-71.9441,-36.5243],[-71.9515,-36.5201],[-71.9572,-36.5232],[-71.9594,-36.5229],[-71.9726,-36.5133],[-71.9777,-36.5124],[-71.983,-36.5081],[-71.9849,-36.5102],[-71.9871,-36.51],[-71.9916,-36.5066],[-71.9982,-36.509],[-72.0028,-36.5158],[-72.0147,-36.5212],[-72.0144,-36.5237],[-72.0167,-36.5252],[-72.0237,-36.5246],[-72.0309,-36.5266],[-72.0411,-36.5211],[-72.0449,-36.5219],[-72.0528,-36.528],[-72.0553,-36.5331],[-72.0608,-36.534],[-72.0657,-36.5368],[-72.0712,-36.5363],[-72.0823,-36.5437],[-72.0836,-36.5463],[-72.0819,-36.5523],[-72.0931,-36.5511],[-72.0917,-36.5469],[-72.0847,-36.5428],[-72.0791,-36.5342],[-72.069,-36.5272],[-72.0783,-36.5215],[-72.0714,-36.5116],[-72.0692,-36.5],[-72.0654,-36.4992],[-72.0591,-36.4866],[-72.0676,-36.4827],[-72.0757,-36.4815],[-72.0733,-36.4688],[-72.0611,-36.4712],[-72.0593,-36.4671],[-72.0519,-36.4659],[-72.0494,-36.4537],[-72.0717,-36.4547],[-72.0828,-36.4578],[-72.0816,-36.4541],[-72.0869,-36.4527],[-72.0828,-36.4393],[-72.0767,-36.4327],[-72.0635,-36.4317],[-72.0622,-36.427],[-72.0565,-36.4273],[-72.0566,-36.424],[-72.0514,-36.4193],[-72.094,-36.402],[-72.1541,-36.3909],[-72.1525,-36.3845],[-72.1553,-36.3798],[-72.1619,-36.3732],[-72.1735,-36.3705],[-72.1757,-36.3687],[-72.1855,-36.3664],[-72.2102,-36.3661],[-72.2176,-36.3624],[-72.2261,-36.3628],[-72.2311,-36.3652],[-72.2363,-36.3618],[-72.2361,-36.357],[-72.2395,-36.3528],[-72.2495,-36.3502],[-72.2526,-36.3495],[-72.2577,-36.3519],[-72.2695,-36.3501],[-72.2847,-36.354],[-72.2904,-36.3572],[-72.3042,-36.3563],[-72.3076,-36.3598],[-72.3183,-36.3582],[-72.324,-36.351],[-72.3334,-36.3438],[-72.3343,-36.336],[-72.3166,-36.3017],[-72.3196,-36.28],[-72.3006,-36.2897],[-72.2909,-36.2795],[-72.2846,-36.2687],[-72.2776,-36.2615]]]]}},{"type":"Feature","properties":{"comunaId":"CHL.13.3.4_1","nombre":"SanFabián","provincia":"Punilla","regionGadm":"Ñuble","centerLat":-36.6217,"centerLon":-71.2783},"geometry":{"type":"MultiPolygon","coordinates":[[[[-71.0353,-36.4742],[-71.0383,-36.4777],[-71.0358,-36.4937],[-71.0392,-36.5002],[-71.0367,-36.5032],[-71.0353,-36.5101],[-71.0433,-36.5148],[-71.0467,-36.5212],[-71.0508,-36.5244],[-71.0461,-36.5339],[-71.0462,-36.5373],[-71.0437,-36.5404],[-71.0439,-36.5463],[-71.0408,-36.5501],[-71.044,-36.5565],[-71.049,-36.5589],[-71.0506,-36.5649],[-71.0558,-36.567],[-71.0537,-36.5712],[-71.0548,-36.5764],[-71.0478,-36.58],[-71.0462,-36.5828],[-71.0484,-36.5883],[-71.046,-36.5956],[-71.0489,-36.5984],[-71.0483,-36.6081],[-71.0575,-36.6182],[-71.0492,-36.6221],[-71.0453,-36.6264],[-71.0424,-36.6363],[-71.0419,-36.6429],[-71.0436,-36.6452],[-71.0407,-36.6487],[-71.0285,-36.6512],[-71.0291,-36.657],[-71.0273,-36.6635],[-71.011,-36.6647],[-71.0134,-36.6732],[-71.0105,-36.6808],[-71.0074,-36.683],[-71.0096,-36.688],[-71.009,-36.6909],[-71.0138,-36.6977],[-71.023,-36.6983],[-71.0307,-36.7026],[-71.0408,-36.7035],[-71.0548,-36.7073],[-71.0592,-36.7131],[-71.0662,-36.7145],[-71.0713,-36.7076],[-71.0759,-36.7072],[-71.0776,-36.7051],[-71.0783,-36.6987],[-71.0804,-36.6958],[-71.0788,-36.6898],[-71.0849,-36.6816],[-71.086,-36.6778],[-71.0925,-36.6787],[-71.1061,-36.6767],[-71.1133,-36.6799],[-71.1155,-36.6869],[-71.1148,-36.6918],[-71.1197,-36.6995],[-71.116,-36.7055],[-71.1165,-36.7092],[-71.1123,-36.7138],[-71.114,-36.7181],[-71.1116,-36.7277],[-71.1208,-36.741],[-71.1182,-36.7483],[-71.1193,-36.7551],[-71.122,-36.7582],[-71.1253,-36.7593],[-71.1284,-36.7639],[-71.1275,-36.7665],[-71.1299,-36.7786],[-71.1282,-36.7916],[-71.1334,-36.8087],[-71.1322,-36.8142],[-71.1421,-36.8185],[-71.1445,-36.8243],[-71.1515,-36.826],[-71.1574,-36.8255],[-71.1616,-36.8201],[-71.1647,-36.8201],[-71.1672,-36.8229],[-71.1694,-36.8307],[-71.1744,-36.8347],[-71.175,-36.8379],[-71.1797,-36.8413],[-71.1797,-36.8439],[-71.1719,-36.8518],[-71.1678,-36.8588],[-71.163,-36.8614],[-71.152,-36.859],[-71.1467,-36.8549],[-71.1389,-36.8535],[-71.1268,-36.8584],[-71.1221,-36.8636],[-71.1228,-36.8667],[-71.1205,-36.869],[-71.13,-36.8738],[-71.1357,-36.8894],[-71.1395,-36.8921],[-71.1401,-36.8962],[-71.1501,-36.9016],[-71.1488,-36.9152],[-71.1442,-36.9201],[-71.1447,-36.9291],[-71.1346,-36.9306],[-71.1278,-36.9285],[-71.1213,-36.932],[-71.1167,-36.9299],[-71.1122,-36.9249],[-71.1052,-36.9292],[-71.0957,-36.9251],[-71.0881,-36.9288],[-71.0881,-36.9378],[-71.0938,-36.9388],[-71.095,-36.9358],[-71.0993,-36.9384],[-71.1049,-36.9374],[-71.1082,-36.9391],[-71.1094,-36.9368],[-71.1117,-36.9368],[-71.1209,-36.9396],[-71.128,-36.9469],[-71.1357,-36.9414],[-71.1407,-36.9406],[-71.1442,-36.9423],[-71.1542,-36.9408],[-71.1649,-36.9223],[-71.175,-36.918],[-71.1794,-36.9115],[-71.1829,-36.9104],[-71.186,-36.9053],[-71.1955,-36.9012],[-71.1945,-36.8969],[-71.1972,-36.8951],[-71.1973,-36.8923],[-71.2002,-36.8895],[-71.2002,-36.8853],[-71.2045,-36.8834],[-71.2057,-36.8804],[-71.2028,-36.8744],[-71.21,-36.8719],[-71.2095,-36.8703],[-71.212,-36.8672],[-71.2236,-36.8617],[-71.2257,-36.8592],[-71.2259,-36.853],[-71.233,-36.8486],[-71.2347,-36.8438],[-71.2486,-36.8369],[-71.2498,-36.8252],[-71.2529,-36.821],[-71.2547,-36.8132],[-71.2512,-36.8083],[-71.2491,-36.7906],[-71.2555,-36.7865],[-71.2552,-36.7761],[-71.2594,-36.774],[-71.2601,-36.7706],[-71.263,-36.7693],[-71.2656,-36.7646],[-71.2661,-36.7606],[-71.2635,-36.7577],[-71.2659,-36.7514],[-71.2643,-36.7493],[-71.2656,-36.7428],[-71.2648,-36.7382],[-71.2663,-36.7361],[-71.2625,-36.7309],[-71.2736,-36.7149],[-71.2797,-36.7125],[-71.2803,-36.7084],[-71.2839,-36.7043],[-71.2826,-36.7019],[-71.2838,-36.6999],[-71.2783,-36.697],[-71.2815,-36.6872],[-71.2858,-36.6873],[-71.2894,-36.6854],[-71.2911,-36.679],[-71.3045,-36.6732],[-71.3074,-36.6686],[-71.3253,-36.6628],[-71.3322,-36.6651],[-71.3394,-36.6577],[-71.3469,-36.6545],[-71.3556,-36.6539],[-71.3639,-36.6561],[-71.3709,-36.6539],[-71.3827,-36.6559],[-71.3856,-36.6552],[-71.389,-36.6506],[-71.39,-36.6531],[-71.3952,-36.6528],[-71.4033,-36.6427],[-71.4141,-36.6377],[-71.4219,-36.6387],[-71.4244,-36.6374],[-71.4261,-36.6324],[-71.4295,-36.6332],[-71.439,-36.6288],[-71.4399,-36.6257],[-71.438,-36.6217],[-71.4392,-36.6191],[-71.4418,-36.6193],[-71.4455,-36.6262],[-71.4501,-36.6249],[-71.4487,-36.6212],[-71.4526,-36.6133],[-71.4635,-36.6156],[-71.468,-36.6124],[-71.4647,-36.6109],[-71.4665,-36.6089],[-71.4718,-36.6084],[-71.4742,-36.6115],[-71.4771,-36.6116],[-71.4813,-36.6063],[-71.4858,-36.6038],[-71.4891,-36.6033],[-71.493,-36.6062],[-71.4965,-36.6066],[-71.5037,-36.5997],[-71.5205,-36.5969],[-71.5219,-36.5927],[-71.5197,-36.5883],[-71.5338,-36.5824],[-71.5446,-36.5706],[-71.5543,-36.5741],[-71.5591,-36.5691],[-71.565,-36.5669],[-71.565,-36.5653],[-71.561,-36.5638],[-71.5675,-36.56],[-71.5693,-36.5568],[-71.5803,-36.5514],[-71.5884,-36.5497],[-71.586,-36.5411],[-71.5943,-36.5407],[-71.5967,-36.5352],[-71.5926,-36.5282],[-71.6049,-36.5189],[-71.6083,-36.5186],[-71.6137,-36.5213],[-71.6189,-36.5155],[-71.6239,-36.5163],[-71.6323,-36.5142],[-71.6343,-36.5179],[-71.6408,-36.5173],[-71.6577,-36.5236],[-71.681,-36.523],[-71.6661,-36.4932],[-71.6729,-36.4879],[-71.6707,-36.4843],[-71.6744,-36.4824],[-71.6712,-36.4724],[-71.672,-36.4704],[-71.6766,-36.4693],[-71.675,-36.4643],[-71.684,-36.4617],[-71.6757,-36.4462],[-71.6895,-36.4408],[-71.686,-36.4366],[-71.6787,-36.4319],[-71.677,-36.4278],[-71.6739,-36.4267],[-71.6732,-36.4242],[-71.6291,-36.3959],[-71.6355,-36.3904],[-71.6393,-36.3843],[-71.6383,-36.3804],[-71.6405,-36.3738],[-71.6294,-36.372],[-71.6248,-36.3745],[-71.6232,-36.3772],[-71.6187,-36.3767],[-71.6098,-36.381],[-71.6077,-36.3845],[-71.601,-36.3857],[-71.5975,-36.3898],[-71.5898,-36.3928],[-71.583,-36.3925],[-71.5774,-36.3978],[-71.5754,-36.4022],[-71.5712,-36.4043],[-71.5638,-36.4023],[-71.5538,-36.4043],[-71.5487,-36.4029],[-71.5448,-36.4073],[-71.5343,-36.4063],[-71.5223,-36.4092],[-71.5161,-36.4048],[-71.5063,-36.4109],[-71.5025,-36.4155],[-71.4672,-36.4121],[-71.4637,-36.4162],[-71.4499,-36.4243],[-71.4481,-36.4302],[-71.4417,-36.4302],[-71.4384,-36.433],[-71.438,-36.4523],[-71.4327,-36.4542],[-71.4307,-36.467],[-71.4252,-36.4731],[-71.4249,-36.4762],[-71.4199,-36.4804],[-71.417,-36.4927],[-71.4112,-36.4982],[-71.4098,-36.5032],[-71.3943,-36.5101],[-71.3735,-36.5109],[-71.3642,-36.5132],[-71.3528,-36.5125],[-71.3462,-36.5198],[-71.3466,-36.5272],[-71.3447,-36.5357],[-71.3399,-36.5425],[-71.3336,-36.5434],[-71.3289,-36.5411],[-71.3203,-36.532],[-71.3193,-36.5238],[-71.3153,-36.5215],[-71.3154,-36.5149],[-71.3118,-36.5054],[-71.3085,-36.5026],[-71.3096,-36.4988],[-71.3078,-36.4963],[-71.3095,-36.4952],[-71.3069,-36.4836],[-71.3016,-36.4798],[-71.2954,-36.4785],[-71.2942,-36.4745],[-71.2958,-36.471],[-71.2935,-36.467],[-71.2938,-36.4639],[-71.286,-36.4591],[-71.2815,-36.4484],[-71.2737,-36.4452],[-71.2701,-36.441],[-71.2627,-36.44],[-71.2599,-36.4418],[-71.2584,-36.4475],[-71.2553,-36.4513],[-71.2483,-36.456],[-71.247,-36.4597],[-71.2333,-36.4659],[-71.2249,-36.4627],[-71.2235,-36.4547],[-71.2208,-36.4511],[-71.2155,-36.4487],[-71.2084,-36.4484],[-71.1971,-36.4384],[-71.197,-36.4186],[-71.1924,-36.4129],[-71.1883,-36.4094],[-71.1843,-36.4092],[-71.1804,-36.4036],[-71.17,-36.4043],[-71.1638,-36.4005],[-71.1557,-36.4056],[-71.1443,-36.389],[-71.1447,-36.3839],[-71.1403,-36.3777],[-71.1134,-36.3618],[-71.0993,-36.3698],[-71.0823,-36.3682],[-71.0788,-36.3708],[-71.0735,-36.3785],[-71.0665,-36.3796],[-71.0595,-36.3869],[-71.0642,-36.3965],[-71.0623,-36.4067],[-71.065,-36.4092],[-71.0614,-36.4193],[-71.0581,-36.4221],[-71.0613,-36.4275],[-71.0603,-36.4339],[-71.0639,-36.4379],[-71.0625,-36.4408],[-71.0681,-36.4479],[-71.066,-36.4524],[-71.06,-36.4562],[-71.0607,-36.4634],[-71.0505,-36.4679],[-71.0388,-36.4698],[-71.0353,-36.4742]]]]}},{"type":"Feature","properties":{"comunaId":"CHL.13.3.5_1","nombre":"SanNicolás","provincia":"Punilla","regionGadm":"Ñuble","centerLat":-36.4954,"centerLon":-72.2512},"geometry":{"type":"MultiPolygon","coordinates":[[[[-72.0931,-36.5511],[-72.1019,-36.5466],[-72.1071,-36.5511],[-72.1182,-36.5497],[-72.1235,-36.5519],[-72.133,-36.5483],[-72.1563,-36.5511],[-72.1605,-36.5549],[-72.1669,-36.5563],[-72.1713,-36.5559],[-72.1764,-36.5518],[-72.1826,-36.5546],[-72.1888,-36.5535],[-72.1979,-36.5576],[-72.2018,-36.5662],[-72.2024,-36.572],[-72.212,-36.571],[-72.2167,-36.578],[-72.224,-36.5836],[-72.235,-36.5832],[-72.2439,-36.5856],[-72.2472,-36.584],[-72.2497,-36.5793],[-72.2554,-36.5784],[-72.265,-36.5894],[-72.2648,-36.5939],[-72.2674,-36.5962],[-72.273,-36.5947],[-72.28,-36.5997],[-72.2886,-36.5979],[-72.2914,-36.5995],[-72.2982,-36.5941],[-72.3103,-36.5902],[-72.3143,-36.5928],[-72.3165,-36.5986],[-72.3246,-36.599],[-72.3316,-36.6016],[-72.3367,-36.6011],[-72.3383,-36.6033],[-72.3429,-36.604],[-72.3457,-36.6009],[-72.3498,-36.601],[-72.3587,-36.6068],[-72.3696,-36.61],[-72.3793,-36.6182],[-72.3882,-36.6226],[-72.3914,-36.6225],[-72.3952,-36.6173],[-72.3953,-36.6087],[-72.3921,-36.607],[-72.3905,-36.604],[-72.3911,-36.5965],[-72.3888,-36.5918],[-72.3878,-36.5815],[-72.3849,-36.578],[-72.3862,-36.577],[-72.382,-36.5769],[-72.3761,-36.5799],[-72.3613,-36.5621],[-72.3632,-36.5516],[-72.3647,-36.5502],[-72.3614,-36.5408],[-72.3607,-36.5333],[-72.3577,-36.5277],[-72.3592,-36.5205],[-72.3619,-36.5179],[-72.3624,-36.5113],[-72.3605,-36.5066],[-72.3532,-36.4988],[-72.3589,-36.494],[-72.359,-36.4851],[-72.367,-36.4834],[-72.3698,-36.4811],[-72.3706,-36.4762],[-72.3657,-36.4779],[-72.3631,-36.476],[-72.3682,-36.4702],[-72.3681,-36.4669],[-72.3701,-36.4649],[-72.3684,-36.4621],[-72.3689,-36.4558],[-72.3612,-36.4533],[-72.3641,-36.4488],[-72.3634,-36.4473],[-72.3584,-36.4476],[-72.3519,-36.4435],[-72.3498,-36.4448],[-72.3489,-36.4435],[-72.3482,-36.4387],[-72.3398,-36.4236],[-72.3404,-36.4166],[-72.3372,-36.4065],[-72.3267,-36.4035],[-72.3253,-36.4015],[-72.3155,-36.3968],[-72.3135,-36.3935],[-72.3071,-36.3933],[-72.3021,-36.3901],[-72.2975,-36.3798],[-72.2978,-36.3744],[-72.3035,-36.3711],[-72.316,-36.3588],[-72.3076,-36.3598],[-72.3038,-36.3563],[-72.2904,-36.3572],[-72.2847,-36.354],[-72.2695,-36.3501],[-72.2577,-36.3519],[-72.2526,-36.3495],[-72.2495,-36.3502],[-72.2395,-36.3528],[-72.2361,-36.357],[-72.2363,-36.3618],[-72.2311,-36.3652],[-72.2261,-36.3628],[-72.2176,-36.3624],[-72.2102,-36.3661],[-72.1855,-36.3664],[-72.1757,-36.3687],[-72.1735,-36.3705],[-72.1619,-36.3732],[-72.1553,-36.3798],[-72.1525,-36.3845],[-72.1541,-36.3909],[-72.094,-36.402],[-72.0514,-36.4193],[-72.0566,-36.424],[-72.0565,-36.4273],[-72.0622,-36.427],[-72.0635,-36.4317],[-72.0767,-36.4327],[-72.0828,-36.4393],[-72.0869,-36.4527],[-72.0816,-36.4541],[-72.0828,-36.4578],[-72.0717,-36.4547],[-72.0494,-36.4537],[-72.0519,-36.4659],[-72.0593,-36.4671],[-72.0611,-36.4712],[-72.0733,-36.4688],[-72.0757,-36.4815],[-72.0676,-36.4827],[-72.0591,-36.4866],[-72.0654,-36.4992],[-72.0692,-36.5],[-72.0714,-36.5116],[-72.0783,-36.5215],[-72.069,-36.5272],[-72.0791,-36.5342],[-72.0847,-36.5428],[-72.0917,-36.5469],[-72.0931,-36.5511]]]]}}]}